{"type":"Topology","arcs":[[[2045,2],[0,74]],[[2045,76],[52,0],[0,37],[171,-1]],[[2268,112],[0,-112],[-223,2]],[[2045,76],[-1,147]],[[2044,223],[106,1]],[[2150,224],[114,-1]],[[2264,223],[19,-45],[-15,-66]],[[2150,224],[3,222]],[[2153,446],[77,0]],[[2230,446],[-5,-43],[13,-18],[-11,-35],[25,-53],[1,-51],[11,-23]],[[2153,446],[0,112],[10,0],[0,112]],[[2163,670],[106,0]],[[2269,670],[-3,-49],[-28,-59],[-16,-68],[8,-48]],[[2163,670],[-54,0]],[[2109,670],[0,222]],[[2109,892],[53,0]],[[2162,892],[140,0]],[[2302,892],[-2,-43],[14,-29],[0,-44],[-45,-106]],[[2162,892],[0,223]],[[2162,1115],[69,-1],[0,56],[54,0]],[[2285,1170],[98,0]],[[2383,1170],[1,-32],[21,-36],[-24,-46],[-39,-31],[-23,-56],[-17,-77]],[[2285,1170],[2,212]],[[2287,1382],[7,11]],[[2294,1393],[163,-1]],[[2457,1392],[-27,-44],[-20,-51],[-15,-93],[-12,-34]],[[2294,1393],[38,86],[32,28],[62,19],[53,-67],[-22,-67]],[[2691,1845],[-8,-21],[-41,-7],[5,51],[39,-5],[5,-18]],[[2628,1741],[-41,-52],[-16,-46],[-27,-53],[-21,-69],[-29,-37],[-34,16],[-15,49],[17,50],[35,46],[24,65],[43,14],[12,43],[30,18],[28,0],[-6,-44]],[[2287,1576],[1,16],[-82,2],[0,17],[-79,3],[1,55],[-31,1],[1,55],[-55,2],[2,110],[-55,2]],[[1990,1839],[2,220]],[[1992,2059],[162,-6],[2,45]],[[2156,2098],[20,4],[45,-19],[48,-47],[-8,-22],[13,-36],[-14,-22],[5,-49],[-26,-28],[-6,-40],[51,-11],[33,17],[18,-16],[-32,-75],[0,-39],[32,-40],[24,-10],[-15,-28],[-1,-34],[-23,-19],[-33,-8]],[[1992,2059],[-112,0],[0,190]],[[1880,2249],[24,-9],[38,12],[89,-31],[66,-11],[33,-22],[12,-37],[-16,-26],[30,-27]],[[1766,2283],[42,-25],[72,-9]],[[1990,1839],[-111,1]],[[1879,1840],[-110,0],[1,55],[-55,0]],[[1715,1895],[0,274]],[[1715,2169],[-1,55],[51,0],[1,59]],[[1715,2169],[-59,3],[2,-28],[-56,3],[-28,24],[-303,-1]],[[1271,2170],[0,54]],[[1271,2224],[51,0],[0,205]],[[1322,2429],[361,-99],[83,-47]],[[1271,2224],[-115,0]],[[1156,2224],[0,110],[-55,0],[0,55],[-56,0],[1,218],[4,12]],[[1050,2619],[66,-34],[72,-25],[11,-14],[39,-93],[84,-24]],[[1156,2224],[-167,0]],[[989,2224],[-110,0],[0,110]],[[879,2334],[0,220],[3,64]],[[882,2618],[61,24],[22,30],[31,-26],[54,-27]],[[1030,2777],[-41,-18],[-27,-26],[-18,13],[45,33],[41,-2]],[[745,593],[-11,33],[3,48],[-5,75],[5,35]],[[737,784],[148,2]],[[885,786],[221,1],[45,3]],[[1151,790],[0,-58]],[[1151,732],[1,-55]],[[1152,677],[-161,-1],[2,-83]],[[993,593],[-248,0]],[[993,593],[5,-143]],[[998,450],[-54,-49],[-76,-36],[-66,-37],[-25,1]],[[777,329],[-6,97],[5,22],[32,54],[-12,39],[-38,16],[-13,36]],[[998,450],[42,11],[59,-1]],[[1099,460],[1,-255]],[[1100,205],[1,-193]],[[1101,12],[-96,1],[7,21],[-35,70],[-117,30],[-35,26],[-15,31],[-3,39],[-20,37],[-10,62]],[[600,2724],[0,-388]],[[600,2336],[-222,0]],[[378,2336],[-108,0]],[[270,2336],[0,320],[38,9],[6,26],[37,34],[23,-28],[42,-21],[76,10],[108,38]],[[879,2334],[-279,2]],[[600,2724],[61,18],[84,57],[43,-16],[13,20],[59,38],[57,9],[34,-42],[-25,-52],[-16,-11],[-4,-62],[-28,-35],[4,-30]],[[378,2336],[0,-110],[7,-1],[1,-219]],[[386,2006],[-55,0]],[[331,2006],[0,55],[-166,2],[0,-55],[-165,2]],[[0,2010],[7,45],[39,38],[10,37],[31,50],[106,54],[16,23],[29,-4],[32,36],[0,47]],[[331,2006],[-1,-274]],[[330,1732],[-179,1],[-91,6]],[[60,1739],[6,50],[19,22],[18,71],[-22,29],[-15,44],[-59,11],[-7,44]],[[737,784],[-17,63],[-6,63],[-29,16],[-17,31]],[[668,957],[22,0],[4,41],[29,18],[55,4]],[[778,1020],[0,-14],[79,0]],[[857,1006],[27,1],[1,-221]],[[668,957],[-64,46]],[[604,1003],[-26,93],[31,22],[1,223]],[[610,1341],[162,1]],[[772,1342],[-1,-223],[7,-99]],[[604,1003],[-54,5],[-77,69],[-51,98],[-62,60]],[[360,1235],[23,95],[16,12],[157,-1]],[[556,1341],[54,0]],[[360,1235],[-29,14],[-52,9],[-30,48]],[[249,1306],[91,-1],[0,92]],[[340,1397],[216,0]],[[556,1397],[0,-56]],[[249,1306],[-40,31],[-69,12],[-19,12],[-46,54],[-40,29],[21,65]],[[56,1509],[175,2],[108,-3]],[[339,1508],[1,-111]],[[56,1509],[6,42],[-6,55],[-13,42],[21,18],[-4,73]],[[330,1732],[9,-56],[0,-168]],[[1100,205],[262,0]],[[1362,205],[1,-196]],[[1363,9],[-262,3]],[[1362,205],[1,28]],[[1363,233],[208,-1],[0,-7]],[[1571,225],[2,-218]],[[1573,7],[-210,2]],[[1571,225],[159,2]],[[1730,227],[105,-3]],[[1835,224],[0,-220]],[[1835,4],[-262,3]],[[1835,224],[105,0]],[[1940,224],[104,-1]],[[2045,2],[-210,2]],[[1413,1119],[56,-1]],[[1469,1118],[0,-168]],[[1469,950],[0,-217]],[[1469,733],[-85,-1]],[[1384,732],[-40,97],[-41,69],[3,39],[-22,57],[4,31],[38,65],[3,30]],[[1329,1120],[84,-1]],[[1413,1119],[-1,168],[-52,0],[-1,111]],[[1359,1398],[158,0],[119,-3]],[[1636,1395],[0,-279]],[[1636,1116],[-167,2]],[[1636,1116],[150,0]],[[1786,1116],[0,-166]],[[1786,950],[-125,0]],[[1661,950],[-192,0]],[[1661,950],[0,-68],[-14,-41],[-21,-29],[0,-78]],[[1626,734],[-157,-1]],[[1626,734],[53,-8],[54,1]],[[1733,727],[-1,-222]],[[1732,505],[-158,-2],[0,8],[-167,0]],[[1407,511],[6,38],[55,28],[1,101],[-56,15],[-29,39]],[[1384,732],[-233,0]],[[1151,790],[0,270]],[[1151,1060],[1,60]],[[1152,1120],[177,0]],[[1152,1120],[-2,112]],[[1150,1232],[0,166]],[[1150,1398],[209,0]],[[386,2006],[219,-1]],[[605,2005],[-1,-220]],[[604,1785],[0,-55],[-55,1]],[[549,1731],[-219,1]],[[600,2336],[4,-111],[1,-220]],[[605,2005],[383,0]],[[988,2005],[0,-166]],[[988,1839],[-109,1],[0,-55]],[[879,1785],[-275,0]],[[879,1785],[0,-167]],[[879,1618],[1,-110]],[[880,1508],[-324,-1]],[[556,1507],[-1,168],[-6,56]],[[556,1507],[0,-110]],[[880,1508],[0,-167]],[[880,1341],[-108,1]],[[2095,1115],[67,0]],[[2109,892],[0,29],[-108,1]],[[2001,922],[0,195]],[[2001,1117],[94,-2]],[[2095,1115],[1,220],[-24,-1]],[[2072,1334],[1,60]],[[2073,1394],[5,-4],[107,3]],[[2185,1393],[-13,-25],[-6,-45],[17,-14],[32,5],[8,25],[64,43]],[[2109,670],[-106,0]],[[2003,670],[-1,56],[-216,2]],[[1786,728],[1,166]],[[1787,894],[214,-1],[0,29]],[[1787,894],[-1,56]],[[1786,1116],[65,0]],[[1851,1116],[150,1]],[[1851,1116],[2,222],[58,0]],[[1911,1338],[161,-4]],[[988,1839],[98,0],[186,3]],[[1272,1842],[-1,-167]],[[1271,1675],[-69,0],[1,-55],[-53,0]],[[1150,1620],[-53,-2],[-218,0]],[[1150,1620],[0,-222]],[[1150,1232],[-217,-1],[0,55],[-53,0],[0,55]],[[1151,1060],[-55,4],[-224,1],[-15,-9],[0,-50]],[[1271,1675],[275,-1]],[[1546,1674],[90,0],[0,-57]],[[1636,1617],[0,-222]],[[1733,727],[53,1]],[[2003,670],[-1,-110],[-8,0],[1,-112]],[[1995,448],[-53,1]],[[1942,449],[-210,1]],[[1732,450],[0,55]],[[1732,450],[-2,-223]],[[1363,233],[-1,239]],[[1362,472],[40,19],[5,20]],[[1362,472],[-33,-18],[-51,-3],[-20,-21],[-52,6]],[[1206,436],[-1,242],[-53,-1]],[[1206,436],[-56,24],[-51,0]],[[1942,449],[-2,-225]],[[2153,446],[-158,2]],[[2287,1576],[-27,-10],[-8,-35],[-33,-47],[-11,-36],[-22,-28],[-1,-27]],[[2073,1394],[-3,111],[-107,1]],[[1963,1506],[3,167],[-71,0]],[[1895,1673],[2,56],[-19,0],[1,111]],[[1895,1673],[-151,1],[0,-57]],[[1744,1617],[-108,0]],[[1546,1674],[1,222]],[[1547,1896],[168,-1]],[[1547,1896],[-2,56],[-274,0]],[[1271,1952],[0,218]],[[1963,1506],[-110,1],[0,55],[-109,0],[0,55]],[[1911,1338],[0,55],[-275,2]],[[1272,1842],[-1,110]],[[988,2005],[1,219]]],"transform":{"scale":[0.0022462436831910217,0.0015691258940440963],"translate":[-92.8986868166157,42.49179992185135]},"objects":{"wiCounties":{"type":"GeometryCollection","geometries":[{"arcs":[[0,1,2]],"type":"Polygon","properties":{"FEATURECLA":"Admin-2 scale rank","SCALERANK":0,"ADM2_CODE":"USA-55059","ISO_3166_2":"US-55","ISO_A2":"US","ADM0_SR":1,"NAME":"Kenosha","NAME_ALT":"Kenosha County","NAME_LOCAL":"","TYPE":"County","TYPE_EN":"County","CODE_LOCAL":"55059","REGION":"WI","REGION_COD":"55","ABBREV":"","AREA_SQKM":728,"SAMEASCITY":0,"LABELRANK":0,"NAME_LEN":7,"MAPCOLOR9":1,"MAPCOLOR13":1,"FIPS":"US55059","SOV_A3":"US1","ADM0_A3":"USA","ADM0_LABEL":2,"ADMIN":"United States of America","GEONUNIT":"United States of America","GU_A3":"USA","MIN_LABEL":8,"MAX_LABEL":10,"MIN_ZOOM":6.6,"WIKIDATAID":"Q495315","NE_ID":1730096083,"latitude":42.581787,"longitude":-88.041892,"NAME_AR":"كينوشا","NAME_BN":"","NAME_DE":"Kenosha","NAME_EL":"","NAME_EN":"Kenosha","NAME_ES":"Kenosha","NAME_FA":"شهرستان کنوشا، ویسکانسین","NAME_FR":"Kenosha","NAME_HE":"","NAME_HI":"","NAME_HU":"Kenosha","NAME_ID":"","NAME_IT":"Kenosha","NAME_JA":"ケノーシャ郡","NAME_KO":"커노샤","NAME_NL":"Kenosha","NAME_PL":"Kenosha","NAME_PT":"Kenosha","NAME_RU":"Кеноша","NAME_SV":"Kenosha","NAME_TR":"Kenosha","NAME_UK":"Кеноша","NAME_UR":"کینوشا کاؤنٹی، وسکونسن","NAME_VI":"Kenosha","NAME_ZH":"基诺沙县","NAME_ZHT":"基諾沙郡"}},{"arcs":[[-2,3,4,5,6]],"type":"Polygon","properties":{"FEATURECLA":"Admin-2 scale rank","SCALERANK":0,"ADM2_CODE":"USA-55101","ISO_3166_2":"US-55","ISO_A2":"US","ADM0_SR":1,"NAME":"Racine","NAME_ALT":"Racine County","NAME_LOCAL":"","TYPE":"County","TYPE_EN":"County","CODE_LOCAL":"55101","REGION":"WI","REGION_COD":"55","ABBREV":"","AREA_SQKM":882,"SAMEASCITY":0,"LABELRANK":0,"NAME_LEN":6,"MAPCOLOR9":1,"MAPCOLOR13":1,"FIPS":"US55101","SOV_A3":"US1","ADM0_A3":"USA","ADM0_LABEL":2,"ADMIN":"United States of America","GEONUNIT":"United States of America","GU_A3":"USA","MIN_LABEL":8,"MAX_LABEL":10,"MIN_ZOOM":6.6,"WIKIDATAID":"Q510122","NE_ID":1730096131,"latitude":42.756642,"longitude":-88.061151,"NAME_AR":"راسين","NAME_BN":"","NAME_DE":"Racine","NAME_EL":"","NAME_EN":"Racine","NAME_ES":"Racine","NAME_FA":"شهرستان رسین، ویسکانسین","NAME_FR":"Racine","NAME_HE":"","NAME_HI":"","NAME_HU":"Racine","NAME_ID":"","NAME_IT":"Racine","NAME_JA":"ラシーン郡","NAME_KO":"라신","NAME_NL":"Racine","NAME_PL":"Racine","NAME_PT":"Racine","NAME_RU":"Расин","NAME_SV":"Racine","NAME_TR":"Racine","NAME_UK":"Расін","NAME_UR":"راسین کاؤنٹی، وسکونسن","NAME_VI":"","NAME_ZH":"拉辛县","NAME_ZHT":"拉辛郡"}},{"arcs":[[-6,7,8,9]],"type":"Polygon","properties":{"FEATURECLA":"Admin-2 scale rank","SCALERANK":0,"ADM2_CODE":"USA-55079","ISO_3166_2":"US-55","ISO_A2":"US","ADM0_SR":1,"NAME":"Milwaukee","NAME_ALT":"Milwaukee County","NAME_LOCAL":"","TYPE":"County","TYPE_EN":"County","CODE_LOCAL":"55079","REGION":"WI","REGION_COD":"55","ABBREV":"","AREA_SQKM":629,"SAMEASCITY":0,"LABELRANK":0,"NAME_LEN":9,"MAPCOLOR9":1,"MAPCOLOR13":1,"FIPS":"US55079","SOV_A3":"US1","ADM0_A3":"USA","ADM0_LABEL":2,"ADMIN":"United States of America","GEONUNIT":"United States of America","GU_A3":"USA","MIN_LABEL":8,"MAX_LABEL":10,"MIN_ZOOM":6.6,"WIKIDATAID":"Q502294","NE_ID":1730096105,"latitude":42.996662,"longitude":-87.981162,"NAME_AR":"ميلووكي","NAME_BN":"","NAME_DE":"Milwaukee","NAME_EL":"","NAME_EN":"Milwaukee","NAME_ES":"Milwaukee","NAME_FA":"شهرستان میلواکی، ویسکانسین","NAME_FR":"Milwaukee","NAME_HE":"מחוז מילווקי","NAME_HI":"","NAME_HU":"Milwaukee","NAME_ID":"","NAME_IT":"Milwaukee","NAME_JA":"ミルウォーキー郡","NAME_KO":"밀워키","NAME_NL":"Milwaukee","NAME_PL":"Milwaukee","NAME_PT":"Milwaukee","NAME_RU":"Милуоки","NAME_SV":"Milwaukee","NAME_TR":"Milwaukee","NAME_UK":"Мілуокі","NAME_UR":"ملواکی کاؤنٹی، وسکونسن","NAME_VI":"Milwaukee","NAME_ZH":"密尔沃基县","NAME_ZHT":"密爾瓦基縣"}},{"arcs":[[-9,10,11,12]],"type":"Polygon","properties":{"FEATURECLA":"Admin-2 scale rank","SCALERANK":0,"ADM2_CODE":"USA-55089","ISO_3166_2":"US-55","ISO_A2":"US","ADM0_SR":1,"NAME":"Ozaukee","NAME_ALT":"Ozaukee County","NAME_LOCAL":"","TYPE":"County","TYPE_EN":"County","CODE_LOCAL":"55089","REGION":"WI","REGION_COD":"55","ABBREV":"","AREA_SQKM":608,"SAMEASCITY":0,"LABELRANK":0,"NAME_LEN":7,"MAPCOLOR9":1,"MAPCOLOR13":1,"FIPS":"US55089","SOV_A3":"US1","ADM0_A3":"USA","ADM0_LABEL":2,"ADMIN":"United States of America","GEONUNIT":"United States of America","GU_A3":"USA","MIN_LABEL":8,"MAX_LABEL":10,"MIN_ZOOM":6.6,"WIKIDATAID":"Q505874","NE_ID":1730096117,"latitude":43.406037,"longitude":-87.953565,"NAME_AR":"أوزاوكي","NAME_BN":"","NAME_DE":"Ozaukee","NAME_EL":"","NAME_EN":"Ozaukee","NAME_ES":"Ozaukee","NAME_FA":"شهرستان اوزاوکی، ویسکانسین","NAME_FR":"'Ozaukee","NAME_HE":"","NAME_HI":"","NAME_HU":"Ozaukee","NAME_ID":"","NAME_IT":"Ozaukee","NAME_JA":"オゾーキー郡","NAME_KO":"오조키","NAME_NL":"Ozaukee","NAME_PL":"Ozaukee","NAME_PT":"Ozaukee","NAME_RU":"Озоки","NAME_SV":"Ozaukee","NAME_TR":"Ozaukee","NAME_UK":"Озокі","NAME_UR":"اوزاوکی کاؤنٹی، وسکونسن","NAME_VI":"Ozaukee","NAME_ZH":"奥佐基县","NAME_ZHT":"奧佐基郡"}},{"arcs":[[-12,13,14,15,16,17]],"type":"Polygon","properties":{"FEATURECLA":"Admin-2 scale rank","SCALERANK":0,"ADM2_CODE":"USA-55117","ISO_3166_2":"US-55","ISO_A2":"US","ADM0_SR":1,"NAME":"Sheboygan","NAME_ALT":"Sheboygan County","NAME_LOCAL":"","TYPE":"County","TYPE_EN":"County","CODE_LOCAL":"55117","REGION":"WI","REGION_COD":"55","ABBREV":"","AREA_SQKM":1343,"SAMEASCITY":0,"LABELRANK":0,"NAME_LEN":9,"MAPCOLOR9":1,"MAPCOLOR13":1,"FIPS":"US55117","SOV_A3":"US1","ADM0_A3":"USA","ADM0_LABEL":2,"ADMIN":"United States of America","GEONUNIT":"United States of America","GU_A3":"USA","MIN_LABEL":8,"MAX_LABEL":10,"MIN_ZOOM":6.6,"WIKIDATAID":"Q500803","NE_ID":1730096149,"latitude":43.71723,"longitude":-87.945173,"NAME_AR":"شيبويجان","NAME_BN":"","NAME_DE":"Sheboygan","NAME_EL":"","NAME_EN":"Sheboygan","NAME_ES":"Sheboygan","NAME_FA":"شهرستان شیبویگان، ویسکانسین","NAME_FR":"Sheboygan","NAME_HE":"","NAME_HI":"","NAME_HU":"Sheboygan","NAME_ID":"","NAME_IT":"Sheboygan","NAME_JA":"シボイガン郡","NAME_KO":"셰보이건","NAME_NL":"Sheboygan","NAME_PL":"Sheboygan","NAME_PT":"Sheboygan","NAME_RU":"Шебойган","NAME_SV":"Sheboygan","NAME_TR":"Sheboygan","NAME_UK":"Шебойґан","NAME_UR":"شیبویگان کاؤنٹی، وسکونسن","NAME_VI":"Sheboygan","NAME_ZH":"希博伊根县","NAME_ZHT":"希博伊根縣"}},{"arcs":[[-17,18,19,20,21]],"type":"Polygon","properties":{"FEATURECLA":"Admin-2 scale rank","SCALERANK":0,"ADM2_CODE":"USA-55071","ISO_3166_2":"US-55","ISO_A2":"US","ADM0_SR":1,"NAME":"Manitowoc","NAME_ALT":"Manitowoc County","NAME_LOCAL":"","TYPE":"County","TYPE_EN":"County","CODE_LOCAL":"55071","REGION":"WI","REGION_COD":"55","ABBREV":"","AREA_SQKM":1542,"SAMEASCITY":0,"LABELRANK":0,"NAME_LEN":9,"MAPCOLOR9":1,"MAPCOLOR13":1,"FIPS":"US55071","SOV_A3":"US1","ADM0_A3":"USA","ADM0_LABEL":2,"ADMIN":"United States of America","GEONUNIT":"United States of America","GU_A3":"USA","MIN_LABEL":8,"MAX_LABEL":10,"MIN_ZOOM":6.6,"WIKIDATAID":"Q500984","NE_ID":1730096097,"latitude":44.109697,"longitude":-87.809737,"NAME_AR":"مانيتووك","NAME_BN":"","NAME_DE":"Manitowoc","NAME_EL":"","NAME_EN":"Manitowoc","NAME_ES":"Manitowoc","NAME_FA":"شهرستان منیتواک، ویسکانسین","NAME_FR":"Manitowoc","NAME_HE":"מחוז מניטווק","NAME_HI":"","NAME_HU":"Manitowoc","NAME_ID":"","NAME_IT":"Manitowoc","NAME_JA":"マニトワック郡","NAME_KO":"매니토웍","NAME_NL":"Manitowoc","NAME_PL":"Manitowoc","NAME_PT":"Manitowoc","NAME_RU":"Манитовок","NAME_SV":"Manitowoc","NAME_TR":"Manitowoc","NAME_UK":"Манітовок","NAME_UR":"مینیٹوواک کاؤنٹی، وسکونسن","NAME_VI":"Manitowoc","NAME_ZH":"马尼托沃克县","NAME_ZHT":"馬尼托沃克郡"}},{"arcs":[[-21,22,23,24,25]],"type":"Polygon","properties":{"FEATURECLA":"Admin-2 scale rank","SCALERANK":0,"ADM2_CODE":"USA-55061","ISO_3166_2":"US-55","ISO_A2":"US","ADM0_SR":1,"NAME":"Kewaunee","NAME_ALT":"Kewaunee County","NAME_LOCAL":"","TYPE":"County","TYPE_EN":"County","CODE_LOCAL":"55061","REGION":"WI","REGION_COD":"55","ABBREV":"","AREA_SQKM":892,"SAMEASCITY":0,"LABELRANK":0,"NAME_LEN":8,"MAPCOLOR9":1,"MAPCOLOR13":1,"FIPS":"US55061","SOV_A3":"US1","ADM0_A3":"USA","ADM0_LABEL":2,"ADMIN":"United States of America","GEONUNIT":"United States of America","GU_A3":"USA","MIN_LABEL":8,"MAX_LABEL":10,"MIN_ZOOM":6.6,"WIKIDATAID":"Q932951","NE_ID":1730096085,"latitude":44.52409,"longitude":-87.619097,"NAME_AR":"كيواوني","NAME_BN":"","NAME_DE":"Kewaunee","NAME_EL":"","NAME_EN":"Kewaunee","NAME_ES":"Kewaunee","NAME_FA":"شهرستان کیوانی، ویسکانسین","NAME_FR":"Kewaunee","NAME_HE":"","NAME_HI":"","NAME_HU":"Kewaunee","NAME_ID":"","NAME_IT":"Kewaunee","NAME_JA":"ケワニー郡","NAME_KO":"케오니","NAME_NL":"Kewaunee","NAME_PL":"Kewaunee","NAME_PT":"Kewaunee","NAME_RU":"Кивони","NAME_SV":"Kewaunee","NAME_TR":"Kewaunee","NAME_UK":"Кевоні","NAME_UR":"کیواونی کاؤنٹی، وسکونسن","NAME_VI":"Kewaunee","NAME_ZH":"基沃尼县","NAME_ZHT":"基沃尼郡"}},{"arcs":[[[-25,26]],[[27]],[[28]]],"type":"MultiPolygon","properties":{"FEATURECLA":"Admin-2 scale rank","SCALERANK":0,"ADM2_CODE":"USA-55029","ISO_3166_2":"US-55","ISO_A2":"US","ADM0_SR":1,"NAME":"Door","NAME_ALT":"Door County","NAME_LOCAL":"","TYPE":"County","TYPE_EN":"County","CODE_LOCAL":"55029","REGION":"WI","REGION_COD":"55","ABBREV":"","AREA_SQKM":1266,"SAMEASCITY":0,"LABELRANK":0,"NAME_LEN":4,"MAPCOLOR9":1,"MAPCOLOR13":1,"FIPS":"US55029","SOV_A3":"US1","ADM0_A3":"USA","ADM0_LABEL":2,"ADMIN":"United States of America","GEONUNIT":"United States of America","GU_A3":"USA","MIN_LABEL":8,"MAX_LABEL":10,"MIN_ZOOM":6.6,"WIKIDATAID":"Q490550","NE_ID":1730096817,"latitude":44.929323,"longitude":-87.301277,"NAME_AR":"دور","NAME_BN":"","NAME_DE":"Door","NAME_EL":"","NAME_EN":"Door","NAME_ES":"Door","NAME_FA":"شهرستان دور، ویسکانسین","NAME_FR":"Door","NAME_HE":"מחוז דור","NAME_HI":"","NAME_HU":"Door","NAME_ID":"","NAME_IT":"Door","NAME_JA":"ドア郡","NAME_KO":"도어","NAME_NL":"Door","NAME_PL":"Door","NAME_PT":"Door","NAME_RU":"Дор","NAME_SV":"Door","NAME_TR":"Door","NAME_UK":"Дор","NAME_UR":"ڈور کاؤنٹی، وسکونسن","NAME_VI":"Door","NAME_ZH":"多尔县","NAME_ZHT":"多爾郡"}},{"arcs":[[29,30,31,32]],"type":"Polygon","properties":{"FEATURECLA":"Admin-2 scale rank","SCALERANK":0,"ADM2_CODE":"USA-55075","ISO_3166_2":"US-55","ISO_A2":"US","ADM0_SR":1,"NAME":"Marinette","NAME_ALT":"Marinette County","NAME_LOCAL":"","TYPE":"County","TYPE_EN":"County","CODE_LOCAL":"55075","REGION":"WI","REGION_COD":"55","ABBREV":"","AREA_SQKM":3679,"SAMEASCITY":0,"LABELRANK":0,"NAME_LEN":9,"MAPCOLOR9":1,"MAPCOLOR13":1,"FIPS":"US55075","SOV_A3":"US1","ADM0_A3":"USA","ADM0_LABEL":2,"ADMIN":"United States of America","GEONUNIT":"United States of America","GU_A3":"USA","MIN_LABEL":8,"MAX_LABEL":10,"MIN_ZOOM":6.6,"WIKIDATAID":"Q1130480","NE_ID":1730096821,"latitude":45.392578,"longitude":-88.084805,"NAME_AR":"مارينيت","NAME_BN":"","NAME_DE":"Marinette","NAME_EL":"","NAME_EN":"Marinette","NAME_ES":"Marinette","NAME_FA":"شهرستان مرینت، ویسکانسین","NAME_FR":"Marinette","NAME_HE":"","NAME_HI":"","NAME_HU":"Marinette","NAME_ID":"","NAME_IT":"Marinette","NAME_JA":"マリネット郡","NAME_KO":"마리네트","NAME_NL":"Marinette","NAME_PL":"Marinette","NAME_PT":"Marinette","NAME_RU":"Мэринетт","NAME_SV":"Marinette","NAME_TR":"Marinette","NAME_UK":"Марінетт","NAME_UR":"میرینیٹ کاؤنٹی، وسکونسن","NAME_VI":"Marinette","NAME_ZH":"马里内特县","NAME_ZHT":"馬里內特郡"}},{"arcs":[[-32,33,34]],"type":"Polygon","properties":{"FEATURECLA":"Admin-2 scale rank","SCALERANK":0,"ADM2_CODE":"USA-55037","ISO_3166_2":"US-55","ISO_A2":"US","ADM0_SR":1,"NAME":"Florence","NAME_ALT":"Florence County","NAME_LOCAL":"","TYPE":"County","TYPE_EN":"County","CODE_LOCAL":"55037","REGION":"WI","REGION_COD":"55","ABBREV":"","AREA_SQKM":1328,"SAMEASCITY":0,"LABELRANK":0,"NAME_LEN":8,"MAPCOLOR9":1,"MAPCOLOR13":1,"FIPS":"US55037","SOV_A3":"US1","ADM0_A3":"USA","ADM0_LABEL":2,"ADMIN":"United States of America","GEONUNIT":"United States of America","GU_A3":"USA","MIN_LABEL":8,"MAX_LABEL":10,"MIN_ZOOM":6.6,"WIKIDATAID":"Q501989","NE_ID":1730096061,"latitude":45.857804,"longitude":-88.395494,"NAME_AR":"فلورنس","NAME_BN":"","NAME_DE":"Florence","NAME_EL":"","NAME_EN":"Florence","NAME_ES":"Florence","NAME_FA":"شهرستان فلورانس، ویسکانسین","NAME_FR":"Florence","NAME_HE":"","NAME_HI":"","NAME_HU":"Florence","NAME_ID":"","NAME_IT":"Florence","NAME_JA":"フローレンス郡","NAME_KO":"플로렌스","NAME_NL":"Florence","NAME_PL":"Florence","NAME_PT":"Florence","NAME_RU":"Флоренс","NAME_SV":"Florence","NAME_TR":"Florence","NAME_UK":"Флоренс","NAME_UR":"فلورنس کاؤنٹی، وسکونسن","NAME_VI":"Florence","NAME_ZH":"弗洛伦斯县","NAME_ZHT":"弗洛倫斯郡"}},{"arcs":[[35,-34,-31,36,37,38,39]],"type":"Polygon","properties":{"FEATURECLA":"Admin-2 scale rank","SCALERANK":0,"ADM2_CODE":"USA-55041","ISO_3166_2":"US-55","ISO_A2":"US","ADM0_SR":1,"NAME":"Forest","NAME_ALT":"Forest County","NAME_LOCAL":"","TYPE":"County","TYPE_EN":"County","CODE_LOCAL":"55041","REGION":"WI","REGION_COD":"55","ABBREV":"","AREA_SQKM":2716,"SAMEASCITY":0,"LABELRANK":0,"NAME_LEN":6,"MAPCOLOR9":1,"MAPCOLOR13":1,"FIPS":"US55041","SOV_A3":"US1","ADM0_A3":"USA","ADM0_LABEL":2,"ADMIN":"United States of America","GEONUNIT":"United States of America","GU_A3":"USA","MIN_LABEL":8,"MAX_LABEL":10,"MIN_ZOOM":6.6,"WIKIDATAID":"Q502086","NE_ID":1730096065,"latitude":45.63597,"longitude":-88.838237,"NAME_AR":"فورست","NAME_BN":"","NAME_DE":"Forest","NAME_EL":"","NAME_EN":"Forest","NAME_ES":"Forest","NAME_FA":"شهرستان فارست، ویسکانسین","NAME_FR":"Forest","NAME_HE":"","NAME_HI":"","NAME_HU":"Forest","NAME_ID":"","NAME_IT":"Forest","NAME_JA":"フォレスト郡","NAME_KO":"포레스트","NAME_NL":"Forest","NAME_PL":"Forest","NAME_PT":"Forest","NAME_RU":"Форест","NAME_SV":"Forest","NAME_TR":"Forest","NAME_UK":"Форест","NAME_UR":"فارسٹ کاؤنٹی، وسکونسن","NAME_VI":"Forest","NAME_ZH":"福雷斯县","NAME_ZHT":"福雷斯郡"}},{"arcs":[[-40,40,41,42,43]],"type":"Polygon","properties":{"FEATURECLA":"Admin-2 scale rank","SCALERANK":0,"ADM2_CODE":"USA-55125","ISO_3166_2":"US-55","ISO_A2":"US","ADM0_SR":1,"NAME":"Vilas","NAME_ALT":"Vilas County","NAME_LOCAL":"","TYPE":"County","TYPE_EN":"County","CODE_LOCAL":"55125","REGION":"WI","REGION_COD":"55","ABBREV":"","AREA_SQKM":2665,"SAMEASCITY":0,"LABELRANK":0,"NAME_LEN":5,"MAPCOLOR9":1,"MAPCOLOR13":1,"FIPS":"US55125","SOV_A3":"US1","ADM0_A3":"USA","ADM0_LABEL":2,"ADMIN":"United States of America","GEONUNIT":"United States of America","GU_A3":"USA","MIN_LABEL":8,"MAX_LABEL":10,"MIN_ZOOM":6.6,"WIKIDATAID":"Q500813","NE_ID":1730096157,"latitude":46.061569,"longitude":-89.514917,"NAME_AR":"فيلاس","NAME_BN":"","NAME_DE":"Vilas","NAME_EL":"","NAME_EN":"Vilas","NAME_ES":"Vilas","NAME_FA":"شهرستان ویلس، ویسکانسین","NAME_FR":"Vilas","NAME_HE":"","NAME_HI":"","NAME_HU":"Vilas","NAME_ID":"","NAME_IT":"Vilas","NAME_JA":"ビラス郡","NAME_KO":"빌라스","NAME_NL":"Vilas","NAME_PL":"Vilas","NAME_PT":"Vilas","NAME_RU":"Вилас","NAME_SV":"Vilas","NAME_TR":"Vilas","NAME_UK":"Вілас","NAME_UR":"ویلاس کاؤنٹی، وسکونسن","NAME_VI":"Vilas","NAME_ZH":"韦勒斯县","NAME_ZHT":"韋勒斯郡"}},{"arcs":[[-43,44,45,46]],"type":"Polygon","properties":{"FEATURECLA":"Admin-2 scale rank","SCALERANK":0,"ADM2_CODE":"USA-55051","ISO_3166_2":"US-55","ISO_A2":"US","ADM0_SR":1,"NAME":"Iron","NAME_ALT":"Iron County","NAME_LOCAL":"","TYPE":"County","TYPE_EN":"County","CODE_LOCAL":"55051","REGION":"WI","REGION_COD":"55","ABBREV":"","AREA_SQKM":2096,"SAMEASCITY":0,"LABELRANK":0,"NAME_LEN":4,"MAPCOLOR9":1,"MAPCOLOR13":1,"FIPS":"US55051","SOV_A3":"US1","ADM0_A3":"USA","ADM0_LABEL":2,"ADMIN":"United States of America","GEONUNIT":"United States of America","GU_A3":"USA","MIN_LABEL":8,"MAX_LABEL":10,"MIN_ZOOM":6.6,"WIKIDATAID":"Q52250","NE_ID":1730096905,"latitude":46.284034,"longitude":-90.248133,"NAME_AR":"أيرون","NAME_BN":"","NAME_DE":"Iron","NAME_EL":"","NAME_EN":"Iron","NAME_ES":"Iron","NAME_FA":"شهرستان آیرن، ویسکانسین","NAME_FR":"'Iron","NAME_HE":"","NAME_HI":"","NAME_HU":"Iron","NAME_ID":"","NAME_IT":"Iron","NAME_JA":"アイアン郡","NAME_KO":"아이언","NAME_NL":"Iron","NAME_PL":"Iron","NAME_PT":"Iron","NAME_RU":"Айрон","NAME_SV":"Iron","NAME_TR":"Iron","NAME_UK":"Айрон","NAME_UR":"آئرن کاؤنٹی، وسکونسن","NAME_VI":"Iron","NAME_ZH":"艾昂縣","NAME_ZHT":"艾昂縣"}},{"arcs":[[[-46,47,48,49,50]],[[51]]],"type":"MultiPolygon","properties":{"FEATURECLA":"Admin-2 scale rank","SCALERANK":0,"ADM2_CODE":"USA-55003","ISO_3166_2":"US-55","ISO_A2":"US","ADM0_SR":1,"NAME":"Ashland","NAME_ALT":"Ashland County","NAME_LOCAL":"","TYPE":"County","TYPE_EN":"County","CODE_LOCAL":"55003","REGION":"WI","REGION_COD":"55","ABBREV":"","AREA_SQKM":2689,"SAMEASCITY":0,"LABELRANK":0,"NAME_LEN":7,"MAPCOLOR9":1,"MAPCOLOR13":1,"FIPS":"US55003","SOV_A3":"US1","ADM0_A3":"USA","ADM0_LABEL":2,"ADMIN":"United States of America","GEONUNIT":"United States of America","GU_A3":"USA","MIN_LABEL":8,"MAX_LABEL":10,"MIN_ZOOM":6.6,"WIKIDATAID":"Q494931","NE_ID":1730096809,"latitude":46.289788,"longitude":-90.739387,"NAME_AR":"آشلاند","NAME_BN":"","NAME_DE":"Ashland","NAME_EL":"","NAME_EN":"Ashland","NAME_ES":"Ashland","NAME_FA":"شهرستان اشلند، ویسکانسین","NAME_FR":"'Ashland","NAME_HE":"","NAME_HI":"","NAME_HU":"Ashland","NAME_ID":"","NAME_IT":"Ashland","NAME_JA":"アシュランド郡","NAME_KO":"애슐랜드","NAME_NL":"Ashland","NAME_PL":"Ashland","NAME_PT":"Ashland","NAME_RU":"Эшленд","NAME_SV":"Ashland","NAME_TR":"Ashland","NAME_UK":"Ешленд","NAME_UR":"ایشلنڈ کاؤنٹی، وسکونسن","NAME_VI":"Ashland","NAME_ZH":"阿什兰县","NAME_ZHT":"阿什蘭縣"}},{"arcs":[[52,53,54,55,56,57,58]],"type":"Polygon","properties":{"FEATURECLA":"Admin-2 scale rank","SCALERANK":0,"ADM2_CODE":"USA-55123","ISO_3166_2":"US-55","ISO_A2":"US","ADM0_SR":1,"NAME":"Vernon","NAME_ALT":"Vernon County","NAME_LOCAL":"","TYPE":"County","TYPE_EN":"County","CODE_LOCAL":"55123","REGION":"WI","REGION_COD":"55","ABBREV":"","AREA_SQKM":2120,"SAMEASCITY":0,"LABELRANK":0,"NAME_LEN":6,"MAPCOLOR9":1,"MAPCOLOR13":1,"FIPS":"US55123","SOV_A3":"US1","ADM0_A3":"USA","ADM0_LABEL":2,"ADMIN":"United States of America","GEONUNIT":"United States of America","GU_A3":"USA","MIN_LABEL":8,"MAX_LABEL":10,"MIN_ZOOM":6.6,"WIKIDATAID":"Q501587","NE_ID":1730096155,"latitude":43.574697,"longitude":-90.835161,"NAME_AR":"فيرنون","NAME_BN":"","NAME_DE":"Vernon","NAME_EL":"","NAME_EN":"Vernon","NAME_ES":"Vernon","NAME_FA":"شهرستان ورنن، ویسکانسین","NAME_FR":"Vernon","NAME_HE":"","NAME_HI":"","NAME_HU":"Vernon","NAME_ID":"","NAME_IT":"Vernon","NAME_JA":"バーノン郡","NAME_KO":"버넌","NAME_NL":"Vernon","NAME_PL":"Vernon","NAME_PT":"Vernon","NAME_RU":"Вернон","NAME_SV":"Vernon","NAME_TR":"Vernon","NAME_UK":"Вернон","NAME_UR":"ورنن کاؤنٹی، وسکونسن","NAME_VI":"Vernon","NAME_ZH":"弗农县","NAME_ZHT":"弗農縣"}},{"arcs":[[-59,59,60,61]],"type":"Polygon","properties":{"FEATURECLA":"Admin-2 scale rank","SCALERANK":0,"ADM2_CODE":"USA-55023","ISO_3166_2":"US-55","ISO_A2":"US","ADM0_SR":1,"NAME":"Crawford","NAME_ALT":"Crawford County","NAME_LOCAL":"","TYPE":"County","TYPE_EN":"County","CODE_LOCAL":"55023","REGION":"WI","REGION_COD":"55","ABBREV":"","AREA_SQKM":1500,"SAMEASCITY":0,"LABELRANK":0,"NAME_LEN":8,"MAPCOLOR9":1,"MAPCOLOR13":1,"FIPS":"US55023","SOV_A3":"US1","ADM0_A3":"USA","ADM0_LABEL":2,"ADMIN":"United States of America","GEONUNIT":"United States of America","GU_A3":"USA","MIN_LABEL":8,"MAX_LABEL":10,"MIN_ZOOM":6.6,"WIKIDATAID":"Q494899","NE_ID":1730096049,"latitude":43.246968,"longitude":-90.924181,"NAME_AR":"كروفورد","NAME_BN":"","NAME_DE":"Crawford","NAME_EL":"","NAME_EN":"Crawford","NAME_ES":"Crawford","NAME_FA":"شهرستان کرفورد، ویسکانسین","NAME_FR":"Crawford","NAME_HE":"","NAME_HI":"","NAME_HU":"Crawford","NAME_ID":"","NAME_IT":"Crawford","NAME_JA":"クロウフォード郡","NAME_KO":"크로퍼드","NAME_NL":"Crawford","NAME_PL":"Crawford","NAME_PT":"Crawford","NAME_RU":"Крофорд","NAME_SV":"Crawford","NAME_TR":"Crawford","NAME_UK":"Кроуфорд","NAME_UR":"کرافورڈ کاؤنٹی، وسکونسن","NAME_VI":"Crawford","NAME_ZH":"克劳福德县","NAME_ZHT":"克勞福德縣"}},{"arcs":[[-61,62,63,64,65]],"type":"Polygon","properties":{"FEATURECLA":"Admin-2 scale rank","SCALERANK":0,"ADM2_CODE":"USA-55043","ISO_3166_2":"US-55","ISO_A2":"US","ADM0_SR":1,"NAME":"Grant","NAME_ALT":"Grant County","NAME_LOCAL":"","TYPE":"County","TYPE_EN":"County","CODE_LOCAL":"55043","REGION":"WI","REGION_COD":"55","ABBREV":"","AREA_SQKM":3075,"SAMEASCITY":0,"LABELRANK":0,"NAME_LEN":5,"MAPCOLOR9":1,"MAPCOLOR13":1,"FIPS":"US55043","SOV_A3":"US1","ADM0_A3":"USA","ADM0_LABEL":2,"ADMIN":"United States of America","GEONUNIT":"United States of America","GU_A3":"USA","MIN_LABEL":8,"MAX_LABEL":10,"MIN_ZOOM":6.6,"WIKIDATAID":"Q500977","NE_ID":1730096067,"latitude":42.898541,"longitude":-90.670869,"NAME_AR":"غرانت","NAME_BN":"","NAME_DE":"Grant","NAME_EL":"","NAME_EN":"Grant","NAME_ES":"Grant","NAME_FA":"شهرستان گرانت، ویسکانسین","NAME_FR":"Grant","NAME_HE":"","NAME_HI":"","NAME_HU":"Grant","NAME_ID":"","NAME_IT":"Grant","NAME_JA":"グラント郡","NAME_KO":"그랜트","NAME_NL":"Grant","NAME_PL":"Grant","NAME_PT":"Grant","NAME_RU":"Грант","NAME_SV":"Grant","NAME_TR":"Grant","NAME_UK":"Грант","NAME_UR":"گرانٹ کاؤنٹی، وسکونسن","NAME_VI":"Grant","NAME_ZH":"格兰特县","NAME_ZHT":"格蘭特縣"}},{"arcs":[[66,67,68,69]],"type":"Polygon","properties":{"FEATURECLA":"Admin-2 scale rank","SCALERANK":0,"ADM2_CODE":"USA-55031","ISO_3166_2":"US-55","ISO_A2":"US","ADM0_SR":1,"NAME":"Douglas","NAME_ALT":"Douglas County","NAME_LOCAL":"","TYPE":"County","TYPE_EN":"County","CODE_LOCAL":"55031","REGION":"WI","REGION_COD":"55","ABBREV":"","AREA_SQKM":3457,"SAMEASCITY":0,"LABELRANK":0,"NAME_LEN":7,"MAPCOLOR9":1,"MAPCOLOR13":1,"FIPS":"US55031","SOV_A3":"US1","ADM0_A3":"USA","ADM0_LABEL":2,"ADMIN":"United States of America","GEONUNIT":"United States of America","GU_A3":"USA","MIN_LABEL":8,"MAX_LABEL":10,"MIN_ZOOM":6.6,"WIKIDATAID":"Q494936","NE_ID":1730096819,"latitude":46.421099,"longitude":-91.915094,"NAME_AR":"دوغلاس","NAME_BN":"","NAME_DE":"Douglas","NAME_EL":"","NAME_EN":"Douglas","NAME_ES":"Douglas","NAME_FA":"شهرستان داگلاس، ویسکانسین","NAME_FR":"Douglas","NAME_HE":"","NAME_HI":"","NAME_HU":"Douglas","NAME_ID":"","NAME_IT":"Douglas","NAME_JA":"ダグラス郡","NAME_KO":"더글러스","NAME_NL":"Douglas","NAME_PL":"Douglas","NAME_PT":"Douglas","NAME_RU":"Дуглас","NAME_SV":"Douglas","NAME_TR":"Douglas","NAME_UK":"Дуґлас","NAME_UR":"ڈگلس کاؤنٹی، وسکونسن","NAME_VI":"Douglas","NAME_ZH":"道格拉斯县","NAME_ZHT":"道格拉斯縣"}},{"arcs":[[-50,70,-67,71]],"type":"Polygon","properties":{"FEATURECLA":"Admin-2 scale rank","SCALERANK":0,"ADM2_CODE":"USA-55007","ISO_3166_2":"US-55","ISO_A2":"US","ADM0_SR":1,"NAME":"Bayfield","NAME_ALT":"Bayfield County","NAME_LOCAL":"","TYPE":"County","TYPE_EN":"County","CODE_LOCAL":"55007","REGION":"WI","REGION_COD":"55","ABBREV":"","AREA_SQKM":3911,"SAMEASCITY":0,"LABELRANK":0,"NAME_LEN":8,"MAPCOLOR9":1,"MAPCOLOR13":1,"FIPS":"US55007","SOV_A3":"US1","ADM0_A3":"USA","ADM0_LABEL":2,"ADMIN":"United States of America","GEONUNIT":"United States of America","GU_A3":"USA","MIN_LABEL":8,"MAX_LABEL":10,"MIN_ZOOM":6.6,"WIKIDATAID":"Q490482","NE_ID":1730096813,"latitude":46.485262,"longitude":-91.2414,"NAME_AR":"بايفيلد","NAME_BN":"","NAME_DE":"Bayfield","NAME_EL":"","NAME_EN":"Bayfield","NAME_ES":"Bayfield","NAME_FA":"شهرستان بیفیلد، ویسکانسین","NAME_FR":"Bayfield","NAME_HE":"","NAME_HI":"","NAME_HU":"Bayfield","NAME_ID":"","NAME_IT":"Bayfield","NAME_JA":"ベイフィールド郡","NAME_KO":"베이필드","NAME_NL":"Bayfield","NAME_PL":"Bayfield","NAME_PT":"Bayfield","NAME_RU":"Бэйфилд","NAME_SV":"Bayfield","NAME_TR":"Bayfield","NAME_UK":"Бейфілд","NAME_UR":"بےفیلڈ کاؤنٹی، وسکونسن","NAME_VI":"Bayfield","NAME_ZH":"贝菲县","NAME_ZHT":"貝菲縣"}},{"arcs":[[-69,72,73,74,75]],"type":"Polygon","properties":{"FEATURECLA":"Admin-2 scale rank","SCALERANK":0,"ADM2_CODE":"USA-55013","ISO_3166_2":"US-55","ISO_A2":"US","ADM0_SR":1,"NAME":"Burnett","NAME_ALT":"Burnett County","NAME_LOCAL":"","TYPE":"County","TYPE_EN":"County","CODE_LOCAL":"55013","REGION":"WI","REGION_COD":"55","ABBREV":"","AREA_SQKM":2355,"SAMEASCITY":0,"LABELRANK":0,"NAME_LEN":7,"MAPCOLOR9":1,"MAPCOLOR13":1,"FIPS":"US55013","SOV_A3":"US1","ADM0_A3":"USA","ADM0_LABEL":2,"ADMIN":"United States of America","GEONUNIT":"United States of America","GU_A3":"USA","MIN_LABEL":8,"MAX_LABEL":10,"MIN_ZOOM":6.6,"WIKIDATAID":"Q494952","NE_ID":1730096039,"latitude":45.876769,"longitude":-92.367975,"NAME_AR":"بورنيت","NAME_BN":"","NAME_DE":"Burnett","NAME_EL":"","NAME_EN":"Burnett","NAME_ES":"Burnett","NAME_FA":"شهرستان بارنت، ویسکانسین","NAME_FR":"Burnett","NAME_HE":"","NAME_HI":"","NAME_HU":"Burnett","NAME_ID":"","NAME_IT":"Burnett","NAME_JA":"バーネット郡","NAME_KO":"버넷","NAME_NL":"Burnett","NAME_PL":"Burnett","NAME_PT":"Burnett","NAME_RU":"Бернетт","NAME_SV":"Burnett","NAME_TR":"Burnett","NAME_UK":"Бернетт","NAME_UR":"برنیٹ کاؤنٹی، وسکونسن","NAME_VI":"Burnett","NAME_ZH":"伯奈特县","NAME_ZHT":"伯奈特縣"}},{"arcs":[[-75,76,77,78]],"type":"Polygon","properties":{"FEATURECLA":"Admin-2 scale rank","SCALERANK":0,"ADM2_CODE":"USA-55095","ISO_3166_2":"US-55","ISO_A2":"US","ADM0_SR":1,"NAME":"Polk","NAME_ALT":"Polk County","NAME_LOCAL":"","TYPE":"County","TYPE_EN":"County","CODE_LOCAL":"55095","REGION":"WI","REGION_COD":"55","ABBREV":"","AREA_SQKM":2499,"SAMEASCITY":0,"LABELRANK":0,"NAME_LEN":4,"MAPCOLOR9":1,"MAPCOLOR13":1,"FIPS":"US55095","SOV_A3":"US1","ADM0_A3":"USA","ADM0_LABEL":2,"ADMIN":"United States of America","GEONUNIT":"United States of America","GU_A3":"USA","MIN_LABEL":8,"MAX_LABEL":10,"MIN_ZOOM":6.6,"WIKIDATAID":"Q376102","NE_ID":1730096123,"latitude":45.447046,"longitude":-92.437057,"NAME_AR":"بولك","NAME_BN":"","NAME_DE":"Polk","NAME_EL":"","NAME_EN":"Polk","NAME_ES":"Polk","NAME_FA":"شهرستان پولک، ویسکانسین","NAME_FR":"Polk","NAME_HE":"","NAME_HI":"","NAME_HU":"Polk","NAME_ID":"","NAME_IT":"Polk","NAME_JA":"ポーク郡","NAME_KO":"포크","NAME_NL":"Polk","NAME_PL":"Polk","NAME_PT":"Polk","NAME_RU":"Полк","NAME_SV":"Polk","NAME_TR":"Polk","NAME_UK":"Полк","NAME_UR":"پوک کاؤنٹی، وسکونسن","NAME_VI":"Polk","NAME_ZH":"波爾克縣","NAME_ZHT":"波爾克縣"}},{"arcs":[[79,80,81,82,-54]],"type":"Polygon","properties":{"FEATURECLA":"Admin-2 scale rank","SCALERANK":0,"ADM2_CODE":"USA-55063","ISO_3166_2":"US-55","ISO_A2":"US","ADM0_SR":1,"NAME":"La Crosse","NAME_ALT":"La Crosse County","NAME_LOCAL":"","TYPE":"County","TYPE_EN":"County","CODE_LOCAL":"55063","REGION":"WI","REGION_COD":"55","ABBREV":"","AREA_SQKM":1237,"SAMEASCITY":0,"LABELRANK":0,"NAME_LEN":9,"MAPCOLOR9":1,"MAPCOLOR13":1,"FIPS":"US55063","SOV_A3":"US1","ADM0_A3":"USA","ADM0_LABEL":2,"ADMIN":"United States of America","GEONUNIT":"United States of America","GU_A3":"USA","MIN_LABEL":8,"MAX_LABEL":10,"MIN_ZOOM":6.6,"WIKIDATAID":"Q500871","NE_ID":1730096087,"latitude":43.897556,"longitude":-91.107857,"NAME_AR":"لاكروس","NAME_BN":"","NAME_DE":"La Crosse","NAME_EL":"","NAME_EN":"La Crosse","NAME_ES":"La Crosse","NAME_FA":"شهرستان لا کروس، ویسکانسین","NAME_FR":"La Crosse","NAME_HE":"","NAME_HI":"","NAME_HU":"La Crosse","NAME_ID":"","NAME_IT":"La Crosse","NAME_JA":"ラクロス郡","NAME_KO":"라크로스","NAME_NL":"La Crosse","NAME_PL":"La Crosse","NAME_PT":"La Crosse","NAME_RU":"Ла-Кросс","NAME_SV":"La Crosse","NAME_TR":"La Crosse","NAME_UK":"Ла-Кросс","NAME_UR":"لا کراس کاؤنٹی، وسکونسن","NAME_VI":"La Crosse","NAME_ZH":"拉克罗斯县","NAME_ZHT":"拉克羅斯郡"}},{"arcs":[[83,84,85,86,-81]],"type":"Polygon","properties":{"FEATURECLA":"Admin-2 scale rank","SCALERANK":0,"ADM2_CODE":"USA-55121","ISO_3166_2":"US-55","ISO_A2":"US","ADM0_SR":1,"NAME":"Trempealeau","NAME_ALT":"Trempealeau County","NAME_LOCAL":"","TYPE":"County","TYPE_EN":"County","CODE_LOCAL":"55121","REGION":"WI","REGION_COD":"55","ABBREV":"","AREA_SQKM":1843,"SAMEASCITY":0,"LABELRANK":0,"NAME_LEN":11,"MAPCOLOR9":1,"MAPCOLOR13":1,"FIPS":"US55121","SOV_A3":"US1","ADM0_A3":"USA","ADM0_LABEL":2,"ADMIN":"United States of America","GEONUNIT":"United States of America","GU_A3":"USA","MIN_LABEL":8,"MAX_LABEL":10,"MIN_ZOOM":6.6,"WIKIDATAID":"Q494923","NE_ID":1730096153,"latitude":44.320802,"longitude":-91.352053,"NAME_AR":"ترمبيلاو","NAME_BN":"","NAME_DE":"Trempealeau","NAME_EL":"","NAME_EN":"Trempealeau","NAME_ES":"Trempealeau","NAME_FA":"شهرستان ترمپیالیو، ویسکانسین","NAME_FR":"Trempealeau","NAME_HE":"","NAME_HI":"","NAME_HU":"Trempealeau","NAME_ID":"","NAME_IT":"Trempealeau","NAME_JA":"トレムピーロー郡","NAME_KO":"트렘필로","NAME_NL":"Trempealeau","NAME_PL":"Trempealeau","NAME_PT":"Trempealeau","NAME_RU":"Тремпело","NAME_SV":"Trempealeau","NAME_TR":"Trempealeau","NAME_UK":"Тремполо","NAME_UR":"ٹریمپیلیاو کاؤنٹی، وسکونسن","NAME_VI":"Trempealeau","NAME_ZH":"特伦珀洛县","NAME_ZHT":"特倫珀洛郡"}},{"arcs":[[87,88,89,-85]],"type":"Polygon","properties":{"FEATURECLA":"Admin-2 scale rank","SCALERANK":0,"ADM2_CODE":"USA-55011","ISO_3166_2":"US-55","ISO_A2":"US","ADM0_SR":1,"NAME":"Buffalo","NAME_ALT":"Buffalo County","NAME_LOCAL":"","TYPE":"County","TYPE_EN":"County","CODE_LOCAL":"55011","REGION":"WI","REGION_COD":"55","ABBREV":"","AREA_SQKM":1852,"SAMEASCITY":0,"LABELRANK":0,"NAME_LEN":7,"MAPCOLOR9":1,"MAPCOLOR13":1,"FIPS":"US55011","SOV_A3":"US1","ADM0_A3":"USA","ADM0_LABEL":2,"ADMIN":"United States of America","GEONUNIT":"United States of America","GU_A3":"USA","MIN_LABEL":8,"MAX_LABEL":10,"MIN_ZOOM":6.6,"WIKIDATAID":"Q494943","NE_ID":1730096035,"latitude":44.391939,"longitude":-91.735977,"NAME_AR":"بوفالو","NAME_BN":"","NAME_DE":"Buffalo","NAME_EL":"","NAME_EN":"Buffalo","NAME_ES":"Buffalo","NAME_FA":"شهرستان بوفالو، ویسکانسین","NAME_FR":"Buffalo","NAME_HE":"","NAME_HI":"","NAME_HU":"Buffalo","NAME_ID":"","NAME_IT":"Buffalo","NAME_JA":"バッファロー郡","NAME_KO":"버펄로","NAME_NL":"Buffalo","NAME_PL":"Buffalo","NAME_PT":"Buffalo","NAME_RU":"Баффало","NAME_SV":"Buffalo","NAME_TR":"Buffalo","NAME_UK":"Баффало","NAME_UR":"بفیلو کاؤنٹی، وسکونسن","NAME_VI":"Buffalo","NAME_ZH":"水牛县","NAME_ZHT":"水牛縣"}},{"arcs":[[90,91,92,93,-89]],"type":"Polygon","properties":{"FEATURECLA":"Admin-2 scale rank","SCALERANK":0,"ADM2_CODE":"USA-55091","ISO_3166_2":"US-55","ISO_A2":"US","ADM0_SR":1,"NAME":"Pepin","NAME_ALT":"Pepin County","NAME_LOCAL":"","TYPE":"County","TYPE_EN":"County","CODE_LOCAL":"55091","REGION":"WI","REGION_COD":"55","ABBREV":"","AREA_SQKM":602,"SAMEASCITY":0,"LABELRANK":0,"NAME_LEN":5,"MAPCOLOR9":1,"MAPCOLOR13":1,"FIPS":"US55091","SOV_A3":"US1","ADM0_A3":"USA","ADM0_LABEL":2,"ADMIN":"United States of America","GEONUNIT":"United States of America","GU_A3":"USA","MIN_LABEL":8,"MAX_LABEL":10,"MIN_ZOOM":6.6,"WIKIDATAID":"Q505868","NE_ID":1730096119,"latitude":44.6155,"longitude":-92.077294,"NAME_AR":"بيبين","NAME_BN":"","NAME_DE":"Pepin","NAME_EL":"","NAME_EN":"Pepin","NAME_ES":"Pepin","NAME_FA":"شهرستان پپین، ویسکانسین","NAME_FR":"Pepin","NAME_HE":"","NAME_HI":"","NAME_HU":"Pepin","NAME_ID":"","NAME_IT":"Pepin","NAME_JA":"ペピン郡","NAME_KO":"피핀","NAME_NL":"Pepin","NAME_PL":"Pepin","NAME_PT":"Pepin","NAME_RU":"Пепин","NAME_SV":"Pepin","NAME_TR":"Pepin","NAME_UK":"Пепін","NAME_UR":"پیپن کاؤنٹی، وسکونسن","NAME_VI":"Pepin","NAME_ZH":"丕平县","NAME_ZHT":"丕平郡"}},{"arcs":[[94,95,96,-92]],"type":"Polygon","properties":{"FEATURECLA":"Admin-2 scale rank","SCALERANK":0,"ADM2_CODE":"USA-55093","ISO_3166_2":"US-55","ISO_A2":"US","ADM0_SR":1,"NAME":"Pierce","NAME_ALT":"Pierce County","NAME_LOCAL":"","TYPE":"County","TYPE_EN":"County","CODE_LOCAL":"55093","REGION":"WI","REGION_COD":"55","ABBREV":"","AREA_SQKM":1494,"SAMEASCITY":0,"LABELRANK":0,"NAME_LEN":6,"MAPCOLOR9":1,"MAPCOLOR13":1,"FIPS":"US55093","SOV_A3":"US1","ADM0_A3":"USA","ADM0_LABEL":2,"ADMIN":"United States of America","GEONUNIT":"United States of America","GU_A3":"USA","MIN_LABEL":8,"MAX_LABEL":10,"MIN_ZOOM":6.6,"WIKIDATAID":"Q501575","NE_ID":1730096121,"latitude":44.724669,"longitude":-92.42216,"NAME_AR":"بيرس","NAME_BN":"","NAME_DE":"Pierce","NAME_EL":"","NAME_EN":"Pierce","NAME_ES":"Pierce","NAME_FA":"شهرستان پیرس، ویسکانسین","NAME_FR":"Pierce","NAME_HE":"","NAME_HI":"","NAME_HU":"Pierce","NAME_ID":"","NAME_IT":"Pierce","NAME_JA":"ピアース郡","NAME_KO":"피어스","NAME_NL":"Pierce","NAME_PL":"Pierce","NAME_PT":"Pierce","NAME_RU":"Пирс","NAME_SV":"Pierce","NAME_TR":"Pierce","NAME_UK":"Пієрс","NAME_UR":"پیئرس کاؤنٹی، وسکونسن","NAME_VI":"Pierce","NAME_ZH":"皮尔斯县","NAME_ZHT":"皮爾斯郡"}},{"arcs":[[97,-78,98,-96]],"type":"Polygon","properties":{"FEATURECLA":"Admin-2 scale rank","SCALERANK":0,"ADM2_CODE":"USA-55109","ISO_3166_2":"US-55","ISO_A2":"US","ADM0_SR":1,"NAME":"Saint Croix","NAME_ALT":"Saint Croix County","NAME_LOCAL":"","TYPE":"County","TYPE_EN":"County","CODE_LOCAL":"55109","REGION":"WI","REGION_COD":"55","ABBREV":"","AREA_SQKM":1934,"SAMEASCITY":0,"LABELRANK":0,"NAME_LEN":11,"MAPCOLOR9":1,"MAPCOLOR13":1,"FIPS":"US55109","SOV_A3":"US1","ADM0_A3":"USA","ADM0_LABEL":2,"ADMIN":"United States of America","GEONUNIT":"United States of America","GU_A3":"USA","MIN_LABEL":8,"MAX_LABEL":10,"MIN_ZOOM":6.6,"WIKIDATAID":"Q591156","NE_ID":1730096139,"latitude":45.035694,"longitude":-92.456702,"NAME_AR":"سانت كروا","NAME_BN":"","NAME_DE":"St. Croix","NAME_EL":"","NAME_EN":"St. Croix","NAME_ES":"St. Croix","NAME_FA":"شهرستان سنت کریکس، ویسکانسین","NAME_FR":"Sainte-Croix","NAME_HE":"","NAME_HI":"","NAME_HU":"Saint Croix","NAME_ID":"","NAME_IT":"St. Croix","NAME_JA":"セイント・クロワ郡","NAME_KO":"세인트크로이","NAME_NL":"St. Croix","NAME_PL":"St. Croix","NAME_PT":"St. Croix","NAME_RU":"Санта-Крус","NAME_SV":"St. Croix","NAME_TR":"St. Croix","NAME_UK":"Сент-Круа","NAME_UR":"سینٹ کروا کاؤنٹی، وسکونسن","NAME_VI":"St. Croix","NAME_ZH":"聖克羅伊縣","NAME_ZHT":"聖克羅伊縣"}},{"arcs":[[-65,99,100,101]],"type":"Polygon","properties":{"FEATURECLA":"Admin-2 scale rank","SCALERANK":0,"ADM2_CODE":"USA-55065","ISO_3166_2":"US-55","ISO_A2":"US","ADM0_SR":1,"NAME":"Lafayette","NAME_ALT":"Lafayette County","NAME_LOCAL":"","TYPE":"County","TYPE_EN":"County","CODE_LOCAL":"55065","REGION":"WI","REGION_COD":"55","ABBREV":"","AREA_SQKM":1639,"SAMEASCITY":0,"LABELRANK":0,"NAME_LEN":9,"MAPCOLOR9":1,"MAPCOLOR13":1,"FIPS":"US55065","SOV_A3":"US1","ADM0_A3":"USA","ADM0_LABEL":2,"ADMIN":"United States of America","GEONUNIT":"United States of America","GU_A3":"USA","MIN_LABEL":8,"MAX_LABEL":10,"MIN_ZOOM":6.6,"WIKIDATAID":"Q431440","NE_ID":1730096089,"latitude":42.661183,"longitude":-90.131305,"NAME_AR":"لافاييت","NAME_BN":"","NAME_DE":"Lafayette","NAME_EL":"","NAME_EN":"Lafayette","NAME_ES":"Lafayette","NAME_FA":"شهرستان لافایت، ویسکانسین","NAME_FR":"Lafayette","NAME_HE":"","NAME_HI":"","NAME_HU":"Lafayette","NAME_ID":"","NAME_IT":"Lafayette","NAME_JA":"ラファイエット郡","NAME_KO":"라피엣","NAME_NL":"Lafayette","NAME_PL":"Lafayette","NAME_PT":"Lafayette","NAME_RU":"Лафейетт","NAME_SV":"Lafayette","NAME_TR":"Lafayette","NAME_UK":"Лафаєтт","NAME_UR":"لافائیٹ کاؤنٹی، وسکونسن","NAME_VI":"Lafayette","NAME_ZH":"拉法葉縣","NAME_ZHT":"拉法葉縣"}},{"arcs":[[-101,102,103,104,105]],"type":"Polygon","properties":{"FEATURECLA":"Admin-2 scale rank","SCALERANK":0,"ADM2_CODE":"USA-55045","ISO_3166_2":"US-55","ISO_A2":"US","ADM0_SR":1,"NAME":"Green","NAME_ALT":"Green County","NAME_LOCAL":"","TYPE":"County","TYPE_EN":"County","CODE_LOCAL":"55045","REGION":"WI","REGION_COD":"55","ABBREV":"","AREA_SQKM":1509,"SAMEASCITY":0,"LABELRANK":0,"NAME_LEN":5,"MAPCOLOR9":1,"MAPCOLOR13":1,"FIPS":"US55045","SOV_A3":"US1","ADM0_A3":"USA","ADM0_LABEL":2,"ADMIN":"United States of America","GEONUNIT":"United States of America","GU_A3":"USA","MIN_LABEL":8,"MAX_LABEL":10,"MIN_ZOOM":6.6,"WIKIDATAID":"Q489163","NE_ID":1730096069,"latitude":42.68093,"longitude":-89.602347,"NAME_AR":"غرين","NAME_BN":"","NAME_DE":"Green","NAME_EL":"","NAME_EN":"Green","NAME_ES":"Green","NAME_FA":"شهرستان گرین، ویسکانسین","NAME_FR":"Green","NAME_HE":"","NAME_HI":"","NAME_HU":"Green","NAME_ID":"","NAME_IT":"Green","NAME_JA":"グリーン郡","NAME_KO":"그린","NAME_NL":"Green","NAME_PL":"Green","NAME_PT":"Green","NAME_RU":"Грин","NAME_SV":"Green","NAME_TR":"Green","NAME_UK":"Ґрін","NAME_UR":"گرین کاؤنٹی، وسکونسن","NAME_VI":"Green","NAME_ZH":"格林县","NAME_ZHT":"格林縣"}},{"arcs":[[-105,106,107,108,109]],"type":"Polygon","properties":{"FEATURECLA":"Admin-2 scale rank","SCALERANK":0,"ADM2_CODE":"USA-55105","ISO_3166_2":"US-55","ISO_A2":"US","ADM0_SR":1,"NAME":"Rock","NAME_ALT":"Rock County","NAME_LOCAL":"","TYPE":"County","TYPE_EN":"County","CODE_LOCAL":"55105","REGION":"WI","REGION_COD":"55","ABBREV":"","AREA_SQKM":1855,"SAMEASCITY":0,"LABELRANK":0,"NAME_LEN":4,"MAPCOLOR9":1,"MAPCOLOR13":1,"FIPS":"US55105","SOV_A3":"US1","ADM0_A3":"USA","ADM0_LABEL":2,"ADMIN":"United States of America","GEONUNIT":"United States of America","GU_A3":"USA","MIN_LABEL":8,"MAX_LABEL":10,"MIN_ZOOM":6.6,"WIKIDATAID":"Q500939","NE_ID":1730096135,"latitude":42.673844,"longitude":-89.071897,"NAME_AR":"روك","NAME_BN":"","NAME_DE":"Rock","NAME_EL":"","NAME_EN":"Rock","NAME_ES":"Rock","NAME_FA":"شهرستان راک، ویسکانسین","NAME_FR":"Rock","NAME_HE":"","NAME_HI":"","NAME_HU":"Rock","NAME_ID":"","NAME_IT":"Rock","NAME_JA":"ロック郡","NAME_KO":"락","NAME_NL":"Rock","NAME_PL":"Rock","NAME_PT":"Rock","NAME_RU":"Рок","NAME_SV":"Rock","NAME_TR":"Rock","NAME_UK":"Рок","NAME_UR":"راک کاؤنٹی، وسکونسن","NAME_VI":"Rock","NAME_ZH":"罗克县","NAME_ZHT":"羅克郡"}},{"arcs":[[-109,110,111,-4,-1,112]],"type":"Polygon","properties":{"FEATURECLA":"Admin-2 scale rank","SCALERANK":0,"ADM2_CODE":"USA-55127","ISO_3166_2":"US-55","ISO_A2":"US","ADM0_SR":1,"NAME":"Walworth","NAME_ALT":"Walworth County","NAME_LOCAL":"","TYPE":"County","TYPE_EN":"County","CODE_LOCAL":"55127","REGION":"WI","REGION_COD":"55","ABBREV":"","AREA_SQKM":1482,"SAMEASCITY":0,"LABELRANK":0,"NAME_LEN":8,"MAPCOLOR9":1,"MAPCOLOR13":1,"FIPS":"US55127","SOV_A3":"US1","ADM0_A3":"USA","ADM0_LABEL":2,"ADMIN":"United States of America","GEONUNIT":"United States of America","GU_A3":"USA","MIN_LABEL":8,"MAX_LABEL":10,"MIN_ZOOM":6.6,"WIKIDATAID":"Q202454","NE_ID":1730096159,"latitude":42.669959,"longitude":-88.541505,"NAME_AR":"والورث","NAME_BN":"","NAME_DE":"Walworth","NAME_EL":"","NAME_EN":"Walworth","NAME_ES":"Walworth","NAME_FA":"شهرستان والورس، ویسکانسین","NAME_FR":"Walworth","NAME_HE":"","NAME_HI":"","NAME_HU":"Walworth","NAME_ID":"","NAME_IT":"Walworth","NAME_JA":"ウォルワース郡","NAME_KO":"월워스","NAME_NL":"Walworth","NAME_PL":"Walworth","NAME_PT":"Walworth","NAME_RU":"Уолуорт","NAME_SV":"Walworth","NAME_TR":"Walworth","NAME_UK":"Волворт","NAME_UR":"والورتھ کاؤنٹی، وسکونسن","NAME_VI":"Walworth","NAME_ZH":"沃爾沃思縣","NAME_ZHT":"沃爾沃思縣"}},{"arcs":[[113,114,115,116,117,118]],"type":"Polygon","properties":{"FEATURECLA":"Admin-2 scale rank","SCALERANK":0,"ADM2_CODE":"USA-55001","ISO_3166_2":"US-55","ISO_A2":"US","ADM0_SR":1,"NAME":"Adams","NAME_ALT":"Adams County","NAME_LOCAL":"","TYPE":"County","TYPE_EN":"County","CODE_LOCAL":"55001","REGION":"WI","REGION_COD":"55","ABBREV":"","AREA_SQKM":1787,"SAMEASCITY":0,"LABELRANK":0,"NAME_LEN":5,"MAPCOLOR9":1,"MAPCOLOR13":1,"FIPS":"US55001","SOV_A3":"US1","ADM0_A3":"USA","ADM0_LABEL":2,"ADMIN":"United States of America","GEONUNIT":"United States of America","GU_A3":"USA","MIN_LABEL":8,"MAX_LABEL":10,"MIN_ZOOM":6.6,"WIKIDATAID":"Q351887","NE_ID":1730096031,"latitude":43.96807,"longitude":-89.774111,"NAME_AR":"آدامز","NAME_BN":"অ্যাডামস কাউন্টি","NAME_DE":"Adams","NAME_EL":"","NAME_EN":"Adams","NAME_ES":"Adams","NAME_FA":"شهرستان ادامز، ویسکانسین","NAME_FR":"'Adams","NAME_HE":"","NAME_HI":"","NAME_HU":"Adams","NAME_ID":"","NAME_IT":"Adams","NAME_JA":"アダムズ郡","NAME_KO":"애덤스","NAME_NL":"Adams","NAME_PL":"Adams","NAME_PT":"Adams","NAME_RU":"Адамс","NAME_SV":"Adams","NAME_TR":"Adams","NAME_UK":"Адамс","NAME_UR":"ایڈمز کاؤنٹی، وسکونسن","NAME_VI":"Adams","NAME_ZH":"亞當斯縣","NAME_ZHT":"亞當斯縣"}},{"arcs":[[-114,119,120,121,122]],"type":"Polygon","properties":{"FEATURECLA":"Admin-2 scale rank","SCALERANK":0,"ADM2_CODE":"USA-55097","ISO_3166_2":"US-55","ISO_A2":"US","ADM0_SR":1,"NAME":"Portage","NAME_ALT":"Portage County","NAME_LOCAL":"","TYPE":"County","TYPE_EN":"County","CODE_LOCAL":"55097","REGION":"WI","REGION_COD":"55","ABBREV":"","AREA_SQKM":2130,"SAMEASCITY":0,"LABELRANK":0,"NAME_LEN":7,"MAPCOLOR9":1,"MAPCOLOR13":1,"FIPS":"US55097","SOV_A3":"US1","ADM0_A3":"USA","ADM0_LABEL":2,"ADMIN":"United States of America","GEONUNIT":"United States of America","GU_A3":"USA","MIN_LABEL":8,"MAX_LABEL":10,"MIN_ZOOM":6.6,"WIKIDATAID":"Q500908","NE_ID":1730096125,"latitude":44.46493,"longitude":-89.501325,"NAME_AR":"بورتاغ","NAME_BN":"","NAME_DE":"Portage","NAME_EL":"","NAME_EN":"Portage","NAME_ES":"Portage","NAME_FA":"شهرستان پورتیج، ویسکانسین","NAME_FR":"Portage","NAME_HE":"","NAME_HI":"","NAME_HU":"Portage","NAME_ID":"","NAME_IT":"Portage","NAME_JA":"ポーテージ郡","NAME_KO":"포티지","NAME_NL":"Portage","NAME_PL":"Portage","NAME_PT":"Portage","NAME_RU":"Портидж","NAME_SV":"Portage","NAME_TR":"Portage","NAME_UK":"Портедж","NAME_UR":"پورٹیج کاؤنٹی، وسکونسن","NAME_VI":"Portage","NAME_ZH":"波蒂奇县","NAME_ZHT":"波蒂奇縣"}},{"arcs":[[-115,-123,123,124,125,126]],"type":"Polygon","properties":{"FEATURECLA":"Admin-2 scale rank","SCALERANK":0,"ADM2_CODE":"USA-55137","ISO_3166_2":"US-55","ISO_A2":"US","ADM0_SR":1,"NAME":"Waushara","NAME_ALT":"Waushara County","NAME_LOCAL":"","TYPE":"County","TYPE_EN":"County","CODE_LOCAL":"55137","REGION":"WI","REGION_COD":"55","ABBREV":"","AREA_SQKM":1652,"SAMEASCITY":0,"LABELRANK":0,"NAME_LEN":8,"MAPCOLOR9":1,"MAPCOLOR13":1,"FIPS":"US55137","SOV_A3":"US1","ADM0_A3":"USA","ADM0_LABEL":2,"ADMIN":"United States of America","GEONUNIT":"United States of America","GU_A3":"USA","MIN_LABEL":8,"MAX_LABEL":10,"MIN_ZOOM":6.6,"WIKIDATAID":"Q500880","NE_ID":1730096171,"latitude":44.112987,"longitude":-89.242813,"NAME_AR":"ووسارا","NAME_BN":"","NAME_DE":"Waushara","NAME_EL":"","NAME_EN":"Waushara","NAME_ES":"Waushara","NAME_FA":"شهرستان واشرا، ویسکانسین","NAME_FR":"Waushara","NAME_HE":"","NAME_HI":"","NAME_HU":"Waushara","NAME_ID":"","NAME_IT":"Waushara","NAME_JA":"ワウシャラ郡","NAME_KO":"와우샤라","NAME_NL":"Waushara","NAME_PL":"Waushara","NAME_PT":"Waushara","NAME_RU":"Уошера","NAME_SV":"Waushara","NAME_TR":"Waushara","NAME_UK":"Вошара","NAME_UR":"واوشارا کاؤنٹی، وسکونسن","NAME_VI":"Waushara","NAME_ZH":"沃沙拉县","NAME_ZHT":"沃沙拉郡"}},{"arcs":[[-116,-127,127,128]],"type":"Polygon","properties":{"FEATURECLA":"Admin-2 scale rank","SCALERANK":0,"ADM2_CODE":"USA-55077","ISO_3166_2":"US-55","ISO_A2":"US","ADM0_SR":1,"NAME":"Marquette","NAME_ALT":"Marquette County","NAME_LOCAL":"","TYPE":"County","TYPE_EN":"County","CODE_LOCAL":"55077","REGION":"WI","REGION_COD":"55","ABBREV":"","AREA_SQKM":1202,"SAMEASCITY":0,"LABELRANK":0,"NAME_LEN":9,"MAPCOLOR9":1,"MAPCOLOR13":1,"FIPS":"US55077","SOV_A3":"US1","ADM0_A3":"USA","ADM0_LABEL":2,"ADMIN":"United States of America","GEONUNIT":"United States of America","GU_A3":"USA","MIN_LABEL":8,"MAX_LABEL":10,"MIN_ZOOM":6.6,"WIKIDATAID":"Q500918","NE_ID":1730096101,"latitude":43.812579,"longitude":-89.410321,"NAME_AR":"ماركويت","NAME_BN":"","NAME_DE":"Marquette","NAME_EL":"","NAME_EN":"Marquette","NAME_ES":"Marquette","NAME_FA":"شهرستان مارکت، ویسکانسین","NAME_FR":"Marquette","NAME_HE":"","NAME_HI":"","NAME_HU":"Marquette","NAME_ID":"","NAME_IT":"Marquette","NAME_JA":"マーケット郡","NAME_KO":"마켓","NAME_NL":"Marquette","NAME_PL":"Marquette","NAME_PT":"Marquette","NAME_RU":"Маркетт","NAME_SV":"Marquette","NAME_TR":"Marquette","NAME_UK":"Маркетт","NAME_UR":"مارکوئٹ کاؤنٹی، وسکونسن","NAME_VI":"Marquette","NAME_ZH":"马凯特县","NAME_ZHT":"馬凱特縣"}},{"arcs":[[-117,-129,129,130,131,132]],"type":"Polygon","properties":{"FEATURECLA":"Admin-2 scale rank","SCALERANK":0,"ADM2_CODE":"USA-55021","ISO_3166_2":"US-55","ISO_A2":"US","ADM0_SR":1,"NAME":"Columbia","NAME_ALT":"Columbia County","NAME_LOCAL":"","TYPE":"County","TYPE_EN":"County","CODE_LOCAL":"55021","REGION":"WI","REGION_COD":"55","ABBREV":"","AREA_SQKM":2091,"SAMEASCITY":0,"LABELRANK":0,"NAME_LEN":8,"MAPCOLOR9":1,"MAPCOLOR13":1,"FIPS":"US55021","SOV_A3":"US1","ADM0_A3":"USA","ADM0_LABEL":2,"ADMIN":"United States of America","GEONUNIT":"United States of America","GU_A3":"USA","MIN_LABEL":8,"MAX_LABEL":10,"MIN_ZOOM":6.6,"WIKIDATAID":"Q493529","NE_ID":1730096047,"latitude":43.462247,"longitude":-89.299006,"NAME_AR":"كولومبيا","NAME_BN":"","NAME_DE":"Columbia","NAME_EL":"","NAME_EN":"Columbia","NAME_ES":"Columbia","NAME_FA":"شهرستان کلمبیا، ویسکانسین","NAME_FR":"Columbia","NAME_HE":"","NAME_HI":"","NAME_HU":"Columbia","NAME_ID":"","NAME_IT":"Columbia","NAME_JA":"コロンビア郡","NAME_KO":"컬럼비아","NAME_NL":"Columbia","NAME_PL":"Columbia","NAME_PT":"Columbia","NAME_RU":"Колумбия","NAME_SV":"Columbia","NAME_TR":"Columbia","NAME_UK":"Колумбія","NAME_UR":"کولمبیا کاؤنٹی، وسکونسن","NAME_VI":"Columbia","NAME_ZH":"哥伦比亚县","NAME_ZHT":"哥倫比亞縣"}},{"arcs":[[-118,133,-56,134,135,136]],"type":"Polygon","properties":{"FEATURECLA":"Admin-2 scale rank","SCALERANK":0,"ADM2_CODE":"USA-55057","ISO_3166_2":"US-55","ISO_A2":"US","ADM0_SR":1,"NAME":"Juneau","NAME_ALT":"Juneau County","NAME_LOCAL":"","TYPE":"County","TYPE_EN":"County","CODE_LOCAL":"55057","REGION":"WI","REGION_COD":"55","ABBREV":"","AREA_SQKM":2077,"SAMEASCITY":0,"LABELRANK":0,"NAME_LEN":6,"MAPCOLOR9":1,"MAPCOLOR13":1,"FIPS":"US55057","SOV_A3":"US1","ADM0_A3":"USA","ADM0_LABEL":2,"ADMIN":"United States of America","GEONUNIT":"United States of America","GU_A3":"USA","MIN_LABEL":8,"MAX_LABEL":10,"MIN_ZOOM":6.6,"WIKIDATAID":"Q502222","NE_ID":1730096081,"latitude":43.915607,"longitude":-90.141183,"NAME_AR":"جونو","NAME_BN":"","NAME_DE":"Juneau","NAME_EL":"","NAME_EN":"Juneau","NAME_ES":"Juneau","NAME_FA":"شهرستان جونیو، ویسکانسین","NAME_FR":"Juneau","NAME_HE":"מחוז ג'ונו","NAME_HI":"","NAME_HU":"Juneau","NAME_ID":"","NAME_IT":"Juneau","NAME_JA":"ジュノー郡","NAME_KO":"주노","NAME_NL":"Juneau","NAME_PL":"Juneau","NAME_PT":"Juneau","NAME_RU":"Джуно","NAME_SV":"Juneau","NAME_TR":"Juneau","NAME_UK":"Джуно","NAME_UR":"جونیاؤ کاؤنٹی، وسکونسن","NAME_VI":"Juneau","NAME_ZH":"朱诺县","NAME_ZHT":"朱諾縣"}},{"arcs":[[-119,-137,137,138,139,-120]],"type":"Polygon","properties":{"FEATURECLA":"Admin-2 scale rank","SCALERANK":0,"ADM2_CODE":"USA-55141","ISO_3166_2":"US-55","ISO_A2":"US","ADM0_SR":1,"NAME":"Wood","NAME_ALT":"Wood County","NAME_LOCAL":"","TYPE":"County","TYPE_EN":"County","CODE_LOCAL":"55141","REGION":"WI","REGION_COD":"55","ABBREV":"","AREA_SQKM":2098,"SAMEASCITY":0,"LABELRANK":0,"NAME_LEN":4,"MAPCOLOR9":1,"MAPCOLOR13":1,"FIPS":"US55141","SOV_A3":"US1","ADM0_A3":"USA","ADM0_LABEL":2,"ADMIN":"United States of America","GEONUNIT":"United States of America","GU_A3":"USA","MIN_LABEL":8,"MAX_LABEL":10,"MIN_ZOOM":6.6,"WIKIDATAID":"Q495332","NE_ID":1730096175,"latitude":44.466843,"longitude":-90.05731,"NAME_AR":"وود","NAME_BN":"","NAME_DE":"Wood","NAME_EL":"","NAME_EN":"Wood","NAME_ES":"Wood","NAME_FA":"شهرستان وود، ویسکانسین","NAME_FR":"Wood","NAME_HE":"","NAME_HI":"","NAME_HU":"Wood","NAME_ID":"","NAME_IT":"Wood","NAME_JA":"ウッド郡","NAME_KO":"우드","NAME_NL":"Wood","NAME_PL":"Wood","NAME_PT":"Wood","NAME_RU":"Вуд","NAME_SV":"Wood","NAME_TR":"Wood","NAME_UK":"Вуд","NAME_UR":"ووڈ کاؤنٹی، وسکونسن","NAME_VI":"Wood","NAME_ZH":"伍德县","NAME_ZHT":"伍德郡"}},{"arcs":[[140,141,142,143,-77,-74]],"type":"Polygon","properties":{"FEATURECLA":"Admin-2 scale rank","SCALERANK":0,"ADM2_CODE":"USA-55005","ISO_3166_2":"US-55","ISO_A2":"US","ADM0_SR":1,"NAME":"Barron","NAME_ALT":"Barron County","NAME_LOCAL":"","TYPE":"County","TYPE_EN":"County","CODE_LOCAL":"55005","REGION":"WI","REGION_COD":"55","ABBREV":"","AREA_SQKM":2306,"SAMEASCITY":0,"LABELRANK":0,"NAME_LEN":6,"MAPCOLOR9":1,"MAPCOLOR13":1,"FIPS":"US55005","SOV_A3":"US1","ADM0_A3":"USA","ADM0_LABEL":2,"ADMIN":"United States of America","GEONUNIT":"United States of America","GU_A3":"USA","MIN_LABEL":8,"MAX_LABEL":10,"MIN_ZOOM":6.6,"WIKIDATAID":"Q494916","NE_ID":1730096033,"latitude":45.423555,"longitude":-91.848409,"NAME_AR":"بارون","NAME_BN":"","NAME_DE":"Barron","NAME_EL":"","NAME_EN":"Barron","NAME_ES":"Barron","NAME_FA":"شهرستان بارون، ویسکانسین","NAME_FR":"Barron","NAME_HE":"","NAME_HI":"","NAME_HU":"Barron","NAME_ID":"","NAME_IT":"Barron","NAME_JA":"バロン郡","NAME_KO":"배런","NAME_NL":"Barron","NAME_PL":"Barron","NAME_PT":"Barron","NAME_RU":"Бэррон","NAME_SV":"Barron","NAME_TR":"Barron","NAME_UK":"Беррон","NAME_UR":"بیرن کاؤنٹی، وسکونسن","NAME_VI":"Barron","NAME_ZH":"巴伦县","NAME_ZHT":"巴倫郡"}},{"arcs":[[-141,-73,-68,144]],"type":"Polygon","properties":{"FEATURECLA":"Admin-2 scale rank","SCALERANK":0,"ADM2_CODE":"USA-55129","ISO_3166_2":"US-55","ISO_A2":"US","ADM0_SR":1,"NAME":"Washburn","NAME_ALT":"Washburn County","NAME_LOCAL":"","TYPE":"County","TYPE_EN":"County","CODE_LOCAL":"55129","REGION":"WI","REGION_COD":"55","ABBREV":"","AREA_SQKM":2210,"SAMEASCITY":0,"LABELRANK":0,"NAME_LEN":8,"MAPCOLOR9":1,"MAPCOLOR13":1,"FIPS":"US55129","SOV_A3":"US1","ADM0_A3":"USA","ADM0_LABEL":2,"ADMIN":"United States of America","GEONUNIT":"United States of America","GU_A3":"USA","MIN_LABEL":8,"MAX_LABEL":10,"MIN_ZOOM":6.6,"WIKIDATAID":"Q500793","NE_ID":1730096161,"latitude":45.89827,"longitude":-91.787607,"NAME_AR":"واشبرن","NAME_BN":"","NAME_DE":"Washburn","NAME_EL":"","NAME_EN":"Washburn","NAME_ES":"Washburn","NAME_FA":"شهرستان واشبرن، ویسکانسین","NAME_FR":"Washburn","NAME_HE":"","NAME_HI":"","NAME_HU":"Washburn","NAME_ID":"","NAME_IT":"Washburn","NAME_JA":"ウォシュバーン郡","NAME_KO":"워시번","NAME_NL":"Washburn","NAME_PL":"Washburn","NAME_PT":"Washburn","NAME_RU":"Уошберн","NAME_SV":"Washburn","NAME_TR":"Washburn","NAME_UK":"Вошберн","NAME_UR":"واشبرن کاؤنٹی، وسکونسن","NAME_VI":"Washburn","NAME_ZH":"沃什伯恩县","NAME_ZHT":"瓦士本郡"}},{"arcs":[[-142,145,146,147,148]],"type":"Polygon","properties":{"FEATURECLA":"Admin-2 scale rank","SCALERANK":0,"ADM2_CODE":"USA-55107","ISO_3166_2":"US-55","ISO_A2":"US","ADM0_SR":1,"NAME":"Rusk","NAME_ALT":"Rusk County","NAME_LOCAL":"","TYPE":"County","TYPE_EN":"County","CODE_LOCAL":"55107","REGION":"WI","REGION_COD":"55","ABBREV":"","AREA_SQKM":2412,"SAMEASCITY":0,"LABELRANK":0,"NAME_LEN":4,"MAPCOLOR9":1,"MAPCOLOR13":1,"FIPS":"US55107","SOV_A3":"US1","ADM0_A3":"USA","ADM0_LABEL":2,"ADMIN":"United States of America","GEONUNIT":"United States of America","GU_A3":"USA","MIN_LABEL":8,"MAX_LABEL":10,"MIN_ZOOM":6.6,"WIKIDATAID":"Q500861","NE_ID":1730096137,"latitude":45.465233,"longitude":-91.13309,"NAME_AR":"راسك","NAME_BN":"","NAME_DE":"Rusk","NAME_EL":"","NAME_EN":"Rusk","NAME_ES":"Rusk","NAME_FA":"شهرستان راسک، ویسکانسین","NAME_FR":"Rusk","NAME_HE":"","NAME_HI":"","NAME_HU":"Rusk","NAME_ID":"","NAME_IT":"Rusk","NAME_JA":"ラスク郡","NAME_KO":"러스크","NAME_NL":"Rusk","NAME_PL":"Rusk","NAME_PT":"Rusk","NAME_RU":"Раск","NAME_SV":"Rusk","NAME_TR":"Rusk","NAME_UK":"Раск","NAME_UR":"رسک کاؤنٹی، وسکونسن","NAME_VI":"Rusk","NAME_ZH":"腊斯克县","NAME_ZHT":"臘斯克郡"}},{"arcs":[[-143,-149,149,150,151,152]],"type":"Polygon","properties":{"FEATURECLA":"Admin-2 scale rank","SCALERANK":0,"ADM2_CODE":"USA-55017","ISO_3166_2":"US-55","ISO_A2":"US","ADM0_SR":1,"NAME":"Chippewa","NAME_ALT":"Chippewa County","NAME_LOCAL":"","TYPE":"County","TYPE_EN":"County","CODE_LOCAL":"55017","REGION":"WI","REGION_COD":"55","ABBREV":"","AREA_SQKM":2696,"SAMEASCITY":0,"LABELRANK":0,"NAME_LEN":8,"MAPCOLOR9":1,"MAPCOLOR13":1,"FIPS":"US55017","SOV_A3":"US1","ADM0_A3":"USA","ADM0_LABEL":2,"ADMIN":"United States of America","GEONUNIT":"United States of America","GU_A3":"USA","MIN_LABEL":8,"MAX_LABEL":10,"MIN_ZOOM":6.6,"WIKIDATAID":"Q127184","NE_ID":1730096043,"latitude":45.074294,"longitude":-91.279949,"NAME_AR":"تشيبيوا","NAME_BN":"","NAME_DE":"Chippewa","NAME_EL":"","NAME_EN":"Chippewa","NAME_ES":"Chippewa","NAME_FA":"شهرستان چیپوا، ویسکانسین","NAME_FR":"Chippewa","NAME_HE":"","NAME_HI":"","NAME_HU":"Chippewa","NAME_ID":"","NAME_IT":"Chippewa","NAME_JA":"チッペワ郡","NAME_KO":"치페와","NAME_NL":"Chippewa","NAME_PL":"Chippewa","NAME_PT":"Chippewa","NAME_RU":"Чиппева","NAME_SV":"Chippewa","NAME_TR":"Chippewa","NAME_UK":"Чіппева","NAME_UR":"چپیوا کاؤنٹی، وسکونسن","NAME_VI":"Chippewa","NAME_ZH":"契皮瓦縣","NAME_ZHT":"契皮瓦縣"}},{"arcs":[[-144,-153,153,-93,-97,-99]],"type":"Polygon","properties":{"FEATURECLA":"Admin-2 scale rank","SCALERANK":0,"ADM2_CODE":"USA-55033","ISO_3166_2":"US-55","ISO_A2":"US","ADM0_SR":1,"NAME":"Dunn","NAME_ALT":"Dunn County","NAME_LOCAL":"","TYPE":"County","TYPE_EN":"County","CODE_LOCAL":"55033","REGION":"WI","REGION_COD":"55","ABBREV":"","AREA_SQKM":2237,"SAMEASCITY":0,"LABELRANK":0,"NAME_LEN":4,"MAPCOLOR9":1,"MAPCOLOR13":1,"FIPS":"US55033","SOV_A3":"US1","ADM0_A3":"USA","ADM0_LABEL":2,"ADMIN":"United States of America","GEONUNIT":"United States of America","GU_A3":"USA","MIN_LABEL":8,"MAX_LABEL":10,"MIN_ZOOM":6.6,"WIKIDATAID":"Q494919","NE_ID":1730096057,"latitude":44.946075,"longitude":-91.893067,"NAME_AR":"دون","NAME_BN":"","NAME_DE":"Dunn","NAME_EL":"","NAME_EN":"Dunn","NAME_ES":"Dunn","NAME_FA":"شهرستان دون، ویسکانسین","NAME_FR":"Dunn","NAME_HE":"","NAME_HI":"","NAME_HU":"Dunn","NAME_ID":"","NAME_IT":"Dunn","NAME_JA":"ダン郡","NAME_KO":"던","NAME_NL":"Dunn","NAME_PL":"Dunn","NAME_PT":"Dunn","NAME_RU":"Данн","NAME_SV":"Dunn","NAME_TR":"Dunn","NAME_UK":"Данн","NAME_UR":"ڈن کاؤنٹی، وسکونسن","NAME_VI":"Dunn","NAME_ZH":"邓恩县","NAME_ZHT":"鄧恩縣"}},{"arcs":[[-90,-94,-154,-152,154,155,-86]],"type":"Polygon","properties":{"FEATURECLA":"Admin-2 scale rank","SCALERANK":0,"ADM2_CODE":"USA-55035","ISO_3166_2":"US-55","ISO_A2":"US","ADM0_SR":1,"NAME":"Eau Claire","NAME_ALT":"Eau Claire County","NAME_LOCAL":"","TYPE":"County","TYPE_EN":"County","CODE_LOCAL":"55035","REGION":"WI","REGION_COD":"55","ABBREV":"","AREA_SQKM":1672,"SAMEASCITY":0,"LABELRANK":0,"NAME_LEN":10,"MAPCOLOR9":1,"MAPCOLOR13":1,"FIPS":"US55035","SOV_A3":"US1","ADM0_A3":"USA","ADM0_LABEL":2,"ADMIN":"United States of America","GEONUNIT":"United States of America","GU_A3":"USA","MIN_LABEL":8,"MAX_LABEL":10,"MIN_ZOOM":6.6,"WIKIDATAID":"Q484133","NE_ID":1730096059,"latitude":44.726649,"longitude":-91.28615,"NAME_AR":"يو كلير","NAME_BN":"","NAME_DE":"Eau Claire","NAME_EL":"","NAME_EN":"Eau Claire","NAME_ES":"Eau Claire","NAME_FA":"شهرستان او کلیر","NAME_FR":"'Eau Claire","NAME_HE":"","NAME_HI":"","NAME_HU":"Eau Claire","NAME_ID":"","NAME_IT":"Eau Claire","NAME_JA":"オークレア郡","NAME_KO":"오클레어","NAME_NL":"Eau Claire","NAME_PL":"Eau Claire","NAME_PT":"Eau Claire","NAME_RU":"О-Клэр","NAME_SV":"Eau Claire","NAME_TR":"Eau Claire","NAME_UK":"О-Клер","NAME_UR":"اوو کلیئر کاؤنٹی، وسکونسن","NAME_VI":"Eau Claire","NAME_ZH":"清水县","NAME_ZHT":"清水縣"}},{"arcs":[[156,-19,-16,157,158,159]],"type":"Polygon","properties":{"FEATURECLA":"Admin-2 scale rank","SCALERANK":0,"ADM2_CODE":"USA-55015","ISO_3166_2":"US-55","ISO_A2":"US","ADM0_SR":1,"NAME":"Calumet","NAME_ALT":"Calumet County","NAME_LOCAL":"","TYPE":"County","TYPE_EN":"County","CODE_LOCAL":"55015","REGION":"WI","REGION_COD":"55","ABBREV":"","AREA_SQKM":1028,"SAMEASCITY":0,"LABELRANK":0,"NAME_LEN":7,"MAPCOLOR9":1,"MAPCOLOR13":1,"FIPS":"US55015","SOV_A3":"US1","ADM0_A3":"USA","ADM0_LABEL":2,"ADMIN":"United States of America","GEONUNIT":"United States of America","GU_A3":"USA","MIN_LABEL":8,"MAX_LABEL":10,"MIN_ZOOM":6.6,"WIKIDATAID":"Q494926","NE_ID":1730096041,"latitude":44.090013,"longitude":-88.218016,"NAME_AR":"كالوميت","NAME_BN":"","NAME_DE":"Calumet","NAME_EL":"","NAME_EN":"Calumet","NAME_ES":"Calumet","NAME_FA":"شهرستان کالومت، ویسکانسین","NAME_FR":"Calumet","NAME_HE":"","NAME_HI":"","NAME_HU":"Calumet","NAME_ID":"","NAME_IT":"Calumet","NAME_JA":"カルメット郡","NAME_KO":"캘류멧","NAME_NL":"Calumet","NAME_PL":"Calumet","NAME_PT":"Calumet","NAME_RU":"Калумет","NAME_SV":"Calumet","NAME_TR":"Calumet","NAME_UK":"Калумет","NAME_UR":"کالیومٹ کاؤنٹی، وسکونسن","NAME_VI":"Calumet","NAME_ZH":"卡柳梅特县","NAME_ZHT":"卡柳梅特縣"}},{"arcs":[[-157,160,161,162,163,-23,-20]],"type":"Polygon","properties":{"FEATURECLA":"Admin-2 scale rank","SCALERANK":0,"ADM2_CODE":"USA-55009","ISO_3166_2":"US-55","ISO_A2":"US","ADM0_SR":1,"NAME":"Brown","NAME_ALT":"Brown County","NAME_LOCAL":"","TYPE":"County","TYPE_EN":"County","CODE_LOCAL":"55009","REGION":"WI","REGION_COD":"55","ABBREV":"","AREA_SQKM":1385,"SAMEASCITY":0,"LABELRANK":0,"NAME_LEN":5,"MAPCOLOR9":1,"MAPCOLOR13":1,"FIPS":"US55009","SOV_A3":"US1","ADM0_A3":"USA","ADM0_LABEL":2,"ADMIN":"United States of America","GEONUNIT":"United States of America","GU_A3":"USA","MIN_LABEL":8,"MAX_LABEL":10,"MIN_ZOOM":6.6,"WIKIDATAID":"Q494893","NE_ID":1730096815,"latitude":44.396709,"longitude":-88.022962,"NAME_AR":"براون","NAME_BN":"","NAME_DE":"Brown","NAME_EL":"","NAME_EN":"Brown","NAME_ES":"Brown","NAME_FA":"شهرستان براون، ویسکانسین","NAME_FR":"Brown","NAME_HE":"מחוז בראון","NAME_HI":"","NAME_HU":"Brown","NAME_ID":"","NAME_IT":"Brown","NAME_JA":"ブラウン郡","NAME_KO":"브라운","NAME_NL":"Brown","NAME_PL":"Brown","NAME_PT":"Brown","NAME_RU":"Браун","NAME_SV":"Brown","NAME_TR":"Brown","NAME_UK":"Браун","NAME_UR":"براؤن کاؤنٹی، وسکونسن","NAME_VI":"Brown","NAME_ZH":"布朗县","NAME_ZHT":"布朗縣"}},{"arcs":[[-158,-15,164,165,166,167]],"type":"Polygon","properties":{"FEATURECLA":"Admin-2 scale rank","SCALERANK":0,"ADM2_CODE":"USA-55039","ISO_3166_2":"US-55","ISO_A2":"US","ADM0_SR":1,"NAME":"Fond du Lac","NAME_ALT":"Fond du Lac County","NAME_LOCAL":"","TYPE":"County","TYPE_EN":"County","CODE_LOCAL":"55039","REGION":"WI","REGION_COD":"55","ABBREV":"","AREA_SQKM":1983,"SAMEASCITY":0,"LABELRANK":0,"NAME_LEN":11,"MAPCOLOR9":1,"MAPCOLOR13":1,"FIPS":"US55039","SOV_A3":"US1","ADM0_A3":"USA","ADM0_LABEL":2,"ADMIN":"United States of America","GEONUNIT":"United States of America","GU_A3":"USA","MIN_LABEL":8,"MAX_LABEL":10,"MIN_ZOOM":6.6,"WIKIDATAID":"Q494912","NE_ID":1730096063,"latitude":43.762591,"longitude":-88.488278,"NAME_AR":"فوند دو لاك","NAME_BN":"","NAME_DE":"Fond du Lac","NAME_EL":"","NAME_EN":"Fond du Lac","NAME_ES":"Fond du Lac","NAME_FA":"شهرستان فوند دو لک","NAME_FR":"Fond du Lac","NAME_HE":"","NAME_HI":"","NAME_HU":"Fond du Lac","NAME_ID":"","NAME_IT":"Fond du Lac","NAME_JA":"フォン・デュ・ラク郡","NAME_KO":"퐁뒤라크","NAME_NL":"Fond du Lac","NAME_PL":"Fond du Lac","NAME_PT":"Fond du Lac","NAME_RU":"Фон-дю-Лак","NAME_SV":"Fond du Lac","NAME_TR":"Fond du Lac","NAME_UK":"Фон-дю-Лак","NAME_UR":"فونڈ ڈو لاک کاؤنٹی، وسکونسن","NAME_VI":"Fond du Lac","NAME_ZH":"丰迪拉克县","NAME_ZHT":"豐迪拉克郡"}},{"arcs":[[-159,-168,168,-125,169,170]],"type":"Polygon","properties":{"FEATURECLA":"Admin-2 scale rank","SCALERANK":0,"ADM2_CODE":"USA-55139","ISO_3166_2":"US-55","ISO_A2":"US","ADM0_SR":1,"NAME":"Winnebago","NAME_ALT":"Winnebago County","NAME_LOCAL":"","TYPE":"County","TYPE_EN":"County","CODE_LOCAL":"55139","REGION":"WI","REGION_COD":"55","ABBREV":"","AREA_SQKM":1498,"SAMEASCITY":0,"LABELRANK":0,"NAME_LEN":9,"MAPCOLOR9":1,"MAPCOLOR13":1,"FIPS":"US55139","SOV_A3":"US1","ADM0_A3":"USA","ADM0_LABEL":2,"ADMIN":"United States of America","GEONUNIT":"United States of America","GU_A3":"USA","MIN_LABEL":8,"MAX_LABEL":10,"MIN_ZOOM":6.6,"WIKIDATAID":"Q502244","NE_ID":1730096173,"latitude":44.069074,"longitude":-88.644637,"NAME_AR":"وينيباغو","NAME_BN":"","NAME_DE":"Winnebago","NAME_EL":"","NAME_EN":"Winnebago","NAME_ES":"Winnebago","NAME_FA":"شهرستان وینبیگوو، ویسکانسین","NAME_FR":"Winnebago","NAME_HE":"","NAME_HI":"","NAME_HU":"Winnebago","NAME_ID":"","NAME_IT":"Winnebago","NAME_JA":"ウィネベーゴ郡","NAME_KO":"위너베이고","NAME_NL":"Winnebago","NAME_PL":"Winnebago","NAME_PT":"Winnebago","NAME_RU":"Уиннебейго","NAME_SV":"Winnebago","NAME_TR":"Winnebago","NAME_UK":"Віннебаґо","NAME_UR":"وینیباگو کاؤنٹی، وسکونسن","NAME_VI":"Winnebago","NAME_ZH":"温纳贝戈县","NAME_ZHT":"溫納貝戈郡"}},{"arcs":[[-160,-171,171,172,-161]],"type":"Polygon","properties":{"FEATURECLA":"Admin-2 scale rank","SCALERANK":0,"ADM2_CODE":"USA-55087","ISO_3166_2":"US-55","ISO_A2":"US","ADM0_SR":1,"NAME":"Outagamie","NAME_ALT":"Outagamie County","NAME_LOCAL":"","TYPE":"County","TYPE_EN":"County","CODE_LOCAL":"55087","REGION":"WI","REGION_COD":"55","ABBREV":"","AREA_SQKM":1669,"SAMEASCITY":0,"LABELRANK":0,"NAME_LEN":9,"MAPCOLOR9":1,"MAPCOLOR13":1,"FIPS":"US55087","SOV_A3":"US1","ADM0_A3":"USA","ADM0_LABEL":2,"ADMIN":"United States of America","GEONUNIT":"United States of America","GU_A3":"USA","MIN_LABEL":8,"MAX_LABEL":10,"MIN_ZOOM":6.6,"WIKIDATAID":"Q510244","NE_ID":1730096115,"latitude":44.416553,"longitude":-88.464842,"NAME_AR":"أوتاغامي","NAME_BN":"","NAME_DE":"Outagamie","NAME_EL":"","NAME_EN":"Outagamie","NAME_ES":"Outagamie","NAME_FA":"شهرستان اوتاگامی، ویسکانسین","NAME_FR":"'Outagamie","NAME_HE":"","NAME_HI":"","NAME_HU":"Outagamie","NAME_ID":"","NAME_IT":"Outagamie","NAME_JA":"アウタガミ郡","NAME_KO":"우타가미","NAME_NL":"Outagamie","NAME_PL":"Outagamie","NAME_PT":"Outagamie","NAME_RU":"Аутагейми","NAME_SV":"Outagamie","NAME_TR":"Outagamie","NAME_UK":"Автаґемі","NAME_UR":"اوٹاگیمی کاؤنٹی، وسکونسن","NAME_VI":"Outagamie","NAME_ZH":"","NAME_ZHT":""}},{"arcs":[[-150,-148,173,174,175,176]],"type":"Polygon","properties":{"FEATURECLA":"Admin-2 scale rank","SCALERANK":0,"ADM2_CODE":"USA-55119","ISO_3166_2":"US-55","ISO_A2":"US","ADM0_SR":1,"NAME":"Taylor","NAME_ALT":"Taylor County","NAME_LOCAL":"","TYPE":"County","TYPE_EN":"County","CODE_LOCAL":"55119","REGION":"WI","REGION_COD":"55","ABBREV":"","AREA_SQKM":2550,"SAMEASCITY":0,"LABELRANK":0,"NAME_LEN":6,"MAPCOLOR9":1,"MAPCOLOR13":1,"FIPS":"US55119","SOV_A3":"US1","ADM0_A3":"USA","ADM0_LABEL":2,"ADMIN":"United States of America","GEONUNIT":"United States of America","GU_A3":"USA","MIN_LABEL":8,"MAX_LABEL":10,"MIN_ZOOM":6.6,"WIKIDATAID":"Q505638","NE_ID":1730096151,"latitude":45.203975,"longitude":-90.500935,"NAME_AR":"تايلور","NAME_BN":"","NAME_DE":"Taylor","NAME_EL":"","NAME_EN":"Taylor","NAME_ES":"Taylor","NAME_FA":"شهرستان تیلور، ویسکانسین","NAME_FR":"Taylor","NAME_HE":"","NAME_HI":"","NAME_HU":"Taylor","NAME_ID":"","NAME_IT":"Taylor","NAME_JA":"テイラー郡","NAME_KO":"테일러","NAME_NL":"Taylor","NAME_PL":"Taylor","NAME_PT":"Taylor","NAME_RU":"Тейлор","NAME_SV":"Taylor","NAME_TR":"Taylor","NAME_UK":"Тейлор","NAME_UR":"ٹیلر کاؤنٹی، وسکونسن","NAME_VI":"Taylor","NAME_ZH":"泰勒县","NAME_ZHT":"泰勒縣"}},{"arcs":[[-151,-177,177,-139,178,-155]],"type":"Polygon","properties":{"FEATURECLA":"Admin-2 scale rank","SCALERANK":0,"ADM2_CODE":"USA-55019","ISO_3166_2":"US-55","ISO_A2":"US","ADM0_SR":1,"NAME":"Clark","NAME_ALT":"Clark County","NAME_LOCAL":"","TYPE":"County","TYPE_EN":"County","CODE_LOCAL":"55019","REGION":"WI","REGION_COD":"55","ABBREV":"","AREA_SQKM":3156,"SAMEASCITY":0,"LABELRANK":0,"NAME_LEN":5,"MAPCOLOR9":1,"MAPCOLOR13":1,"FIPS":"US55019","SOV_A3":"US1","ADM0_A3":"USA","ADM0_LABEL":2,"ADMIN":"United States of America","GEONUNIT":"United States of America","GU_A3":"USA","MIN_LABEL":8,"MAX_LABEL":10,"MIN_ZOOM":6.6,"WIKIDATAID":"Q494958","NE_ID":1730096045,"latitude":44.738662,"longitude":-90.61609,"NAME_AR":"كلارك","NAME_BN":"","NAME_DE":"Clark","NAME_EL":"","NAME_EN":"Clark","NAME_ES":"Clark","NAME_FA":"شهرستان کلارک، ویسکانسین","NAME_FR":"Clark","NAME_HE":"","NAME_HI":"","NAME_HU":"Clark","NAME_ID":"","NAME_IT":"Clark","NAME_JA":"クラーク郡","NAME_KO":"클라크","NAME_NL":"Clark","NAME_PL":"Clark","NAME_PT":"Clark","NAME_RU":"Кларк","NAME_SV":"Clark","NAME_TR":"Clark","NAME_UK":"Кларк","NAME_UR":"کلارک کاؤنٹی، وسکونسن","NAME_VI":"Clark","NAME_ZH":"克拉克县","NAME_ZHT":"克拉克縣"}},{"arcs":[[-179,-138,-136,179,-82,-87,-156]],"type":"Polygon","properties":{"FEATURECLA":"Admin-2 scale rank","SCALERANK":0,"ADM2_CODE":"USA-55053","ISO_3166_2":"US-55","ISO_A2":"US","ADM0_SR":1,"NAME":"Jackson","NAME_ALT":"Jackson County","NAME_LOCAL":"","TYPE":"County","TYPE_EN":"County","CODE_LOCAL":"55053","REGION":"WI","REGION_COD":"55","ABBREV":"","AREA_SQKM":2581,"SAMEASCITY":0,"LABELRANK":0,"NAME_LEN":7,"MAPCOLOR9":1,"MAPCOLOR13":1,"FIPS":"US55053","SOV_A3":"US1","ADM0_A3":"USA","ADM0_LABEL":2,"ADMIN":"United States of America","GEONUNIT":"United States of America","GU_A3":"USA","MIN_LABEL":8,"MAX_LABEL":10,"MIN_ZOOM":6.6,"WIKIDATAID":"Q500897","NE_ID":1730096077,"latitude":44.330511,"longitude":-90.941519,"NAME_AR":"جاكسون","NAME_BN":"জ্যাকসন কাউন্টি","NAME_DE":"Jackson","NAME_EL":"","NAME_EN":"Jackson","NAME_ES":"Jackson","NAME_FA":"شهرستان جکسون، ویسکانسین","NAME_FR":"Jackson","NAME_HE":"","NAME_HI":"","NAME_HU":"Jackson","NAME_ID":"","NAME_IT":"Jackson","NAME_JA":"ジャクソン郡","NAME_KO":"잭슨","NAME_NL":"Jackson","NAME_PL":"Jackson","NAME_PT":"Jackson","NAME_RU":"Джексон","NAME_SV":"Jackson","NAME_TR":"Jackson","NAME_UK":"Джексон","NAME_UR":"جیکسن کاؤنٹی، وسکونسن","NAME_VI":"Jackson","NAME_ZH":"杰克逊县","NAME_ZHT":"傑克遜縣"}},{"arcs":[[-178,-176,180,181,182,-121,-140]],"type":"Polygon","properties":{"FEATURECLA":"Admin-2 scale rank","SCALERANK":0,"ADM2_CODE":"USA-55073","ISO_3166_2":"US-55","ISO_A2":"US","ADM0_SR":1,"NAME":"Marathon","NAME_ALT":"Marathon County","NAME_LOCAL":"","TYPE":"County","TYPE_EN":"County","CODE_LOCAL":"55073","REGION":"WI","REGION_COD":"55","ABBREV":"","AREA_SQKM":4083,"SAMEASCITY":0,"LABELRANK":0,"NAME_LEN":8,"MAPCOLOR9":1,"MAPCOLOR13":1,"FIPS":"US55073","SOV_A3":"US1","ADM0_A3":"USA","ADM0_LABEL":2,"ADMIN":"United States of America","GEONUNIT":"United States of America","GU_A3":"USA","MIN_LABEL":8,"MAX_LABEL":10,"MIN_ZOOM":6.6,"WIKIDATAID":"Q505848","NE_ID":1730096099,"latitude":44.902304,"longitude":-89.759052,"NAME_AR":"ماراثون","NAME_BN":"","NAME_DE":"Marathon","NAME_EL":"","NAME_EN":"Marathon","NAME_ES":"Marathon","NAME_FA":"شهرستان ماراتون، ویسکانسین","NAME_FR":"Marathon","NAME_HE":"","NAME_HI":"","NAME_HU":"Marathon","NAME_ID":"","NAME_IT":"Marathon","NAME_JA":"マラソン郡","NAME_KO":"마라톤","NAME_NL":"Marathon","NAME_PL":"Marathon","NAME_PT":"Marathon","NAME_RU":"Марафон","NAME_SV":"Marathon","NAME_TR":"Marathon","NAME_UK":"Марафон","NAME_UR":"میراتھن کاؤنٹی، وسکونسن","NAME_VI":"Marathon","NAME_ZH":"马拉松县","NAME_ZHT":"馬拉松郡"}},{"arcs":[[-131,183,-166,184,185,186,187]],"type":"Polygon","properties":{"FEATURECLA":"Admin-2 scale rank","SCALERANK":0,"ADM2_CODE":"USA-55027","ISO_3166_2":"US-55","ISO_A2":"US","ADM0_SR":1,"NAME":"Dodge","NAME_ALT":"Dodge County","NAME_LOCAL":"","TYPE":"County","TYPE_EN":"County","CODE_LOCAL":"55027","REGION":"WI","REGION_COD":"55","ABBREV":"","AREA_SQKM":2349,"SAMEASCITY":0,"LABELRANK":0,"NAME_LEN":5,"MAPCOLOR9":1,"MAPCOLOR13":1,"FIPS":"US55027","SOV_A3":"US1","ADM0_A3":"USA","ADM0_LABEL":2,"ADMIN":"United States of America","GEONUNIT":"United States of America","GU_A3":"USA","MIN_LABEL":8,"MAX_LABEL":10,"MIN_ZOOM":6.6,"WIKIDATAID":"Q372796","NE_ID":1730096053,"latitude":43.415394,"longitude":-88.708104,"NAME_AR":"دودج","NAME_BN":"","NAME_DE":"Dodge","NAME_EL":"","NAME_EN":"Dodge","NAME_ES":"Dodge","NAME_FA":"شهرستان دوج، ویسکانسین","NAME_FR":"Dodge","NAME_HE":"מחוז דודג'","NAME_HI":"","NAME_HU":"Dodge","NAME_ID":"","NAME_IT":"Dodge","NAME_JA":"ドッジ郡","NAME_KO":"도지","NAME_NL":"Dodge","NAME_PL":"Dodge","NAME_PT":"Dodge","NAME_RU":"Додж","NAME_SV":"Dodge","NAME_TR":"Dodge","NAME_UK":"Додж","NAME_UR":"ڈاج کاؤنٹی، وسکونسن","NAME_VI":"Dodge","NAME_ZH":"道奇縣","NAME_ZHT":"道奇縣"}},{"arcs":[[-132,-188,188,-107,-104,189,190]],"type":"Polygon","properties":{"FEATURECLA":"Admin-2 scale rank","SCALERANK":0,"ADM2_CODE":"USA-55025","ISO_3166_2":"US-55","ISO_A2":"US","ADM0_SR":1,"NAME":"Dane","NAME_ALT":"Dane County","NAME_LOCAL":"","TYPE":"County","TYPE_EN":"County","CODE_LOCAL":"55025","REGION":"WI","REGION_COD":"55","ABBREV":"","AREA_SQKM":3227,"SAMEASCITY":0,"LABELRANK":0,"NAME_LEN":4,"MAPCOLOR9":1,"MAPCOLOR13":1,"FIPS":"US55025","SOV_A3":"US1","ADM0_A3":"USA","ADM0_LABEL":2,"ADMIN":"United States of America","GEONUNIT":"United States of America","GU_A3":"USA","MIN_LABEL":8,"MAX_LABEL":10,"MIN_ZOOM":6.6,"WIKIDATAID":"Q502200","NE_ID":1730096051,"latitude":43.075318,"longitude":-89.425869,"NAME_AR":"دان","NAME_BN":"","NAME_DE":"Dane","NAME_EL":"","NAME_EN":"Dane","NAME_ES":"Dane","NAME_FA":"شهرستان دان، ویسکانسین","NAME_FR":"Dane","NAME_HE":"","NAME_HI":"","NAME_HU":"Dane","NAME_ID":"","NAME_IT":"Dane","NAME_JA":"デーン郡","NAME_KO":"데인","NAME_NL":"Dane","NAME_PL":"Dane","NAME_PT":"Dane","NAME_RU":"Дейн","NAME_SV":"Dane","NAME_TR":"Dane","NAME_UK":"Дейн","NAME_UR":"ڈین کاؤنٹی، وسکونسن","NAME_VI":"Dane","NAME_ZH":"戴恩县","NAME_ZHT":"戴恩縣"}},{"arcs":[[-133,-191,191,192,-57,-134]],"type":"Polygon","properties":{"FEATURECLA":"Admin-2 scale rank","SCALERANK":0,"ADM2_CODE":"USA-55111","ISO_3166_2":"US-55","ISO_A2":"US","ADM0_SR":1,"NAME":"Sauk","NAME_ALT":"Sauk County","NAME_LOCAL":"","TYPE":"County","TYPE_EN":"County","CODE_LOCAL":"55111","REGION":"WI","REGION_COD":"55","ABBREV":"","AREA_SQKM":2102,"SAMEASCITY":0,"LABELRANK":0,"NAME_LEN":4,"MAPCOLOR9":1,"MAPCOLOR13":1,"FIPS":"US55111","SOV_A3":"US1","ADM0_A3":"USA","ADM0_LABEL":2,"ADMIN":"United States of America","GEONUNIT":"United States of America","GU_A3":"USA","MIN_LABEL":8,"MAX_LABEL":10,"MIN_ZOOM":6.6,"WIKIDATAID":"Q500933","NE_ID":1730096141,"latitude":43.422442,"longitude":-89.952355,"NAME_AR":"سوك","NAME_BN":"","NAME_DE":"Sauk","NAME_EL":"","NAME_EN":"Sauk","NAME_ES":"Sauk","NAME_FA":"شهرستان ساوک، ویسکانسین","NAME_FR":"Sauk","NAME_HE":"","NAME_HI":"","NAME_HU":"Sauk","NAME_ID":"","NAME_IT":"Sauk","NAME_JA":"ソーク郡","NAME_KO":"소크","NAME_NL":"Sauk","NAME_PL":"Sauk","NAME_PT":"Sauk","NAME_RU":"Сок","NAME_SV":"Sauk","NAME_TR":"Sauk","NAME_UK":"Сок","NAME_UR":"ساوک کاؤنٹی، وسکونسن","NAME_VI":"Sauk","NAME_ZH":"索克县","NAME_ZHT":"索克縣"}},{"arcs":[[-130,-128,-126,-169,-167,-184]],"type":"Polygon","properties":{"FEATURECLA":"Admin-2 scale rank","SCALERANK":0,"ADM2_CODE":"USA-55047","ISO_3166_2":"US-55","ISO_A2":"US","ADM0_SR":1,"NAME":"Green Lake","NAME_ALT":"Green Lake County","NAME_LOCAL":"","TYPE":"County","TYPE_EN":"County","CODE_LOCAL":"55047","REGION":"WI","REGION_COD":"55","ABBREV":"","AREA_SQKM":984,"SAMEASCITY":0,"LABELRANK":0,"NAME_LEN":10,"MAPCOLOR9":1,"MAPCOLOR13":1,"FIPS":"US55047","SOV_A3":"US1","ADM0_A3":"USA","ADM0_LABEL":2,"ADMIN":"United States of America","GEONUNIT":"United States of America","GU_A3":"USA","MIN_LABEL":8,"MAX_LABEL":10,"MIN_ZOOM":6.6,"WIKIDATAID":"Q500891","NE_ID":1730096071,"latitude":43.800687,"longitude":-89.030487,"NAME_AR":"غرين ليك","NAME_BN":"","NAME_DE":"Green Lake","NAME_EL":"","NAME_EN":"Green Lake","NAME_ES":"Green Lake","NAME_FA":"شهرستان گرین لیک، ویسکانسین","NAME_FR":"Green Lake","NAME_HE":"","NAME_HI":"","NAME_HU":"Green Lake","NAME_ID":"","NAME_IT":"Green Lake","NAME_JA":"グリーンレイク郡","NAME_KO":"그린레이크","NAME_NL":"Green Lake","NAME_PL":"Green Lake","NAME_PT":"Green Lake","NAME_RU":"Грин-Лейк","NAME_SV":"Green Lake","NAME_TR":"Green Lake","NAME_UK":"Ґрін-Лейк","NAME_UR":"گرین لیک کاؤنٹی، وسکونسن","NAME_VI":"Green Lake","NAME_ZH":"格林莱克县","NAME_ZHT":"格林萊克郡"}},{"arcs":[[-60,-58,-193,193,-63]],"type":"Polygon","properties":{"FEATURECLA":"Admin-2 scale rank","SCALERANK":0,"ADM2_CODE":"USA-55103","ISO_3166_2":"US-55","ISO_A2":"US","ADM0_SR":1,"NAME":"Richland","NAME_ALT":"Richland County","NAME_LOCAL":"","TYPE":"County","TYPE_EN":"County","CODE_LOCAL":"55103","REGION":"WI","REGION_COD":"55","ABBREV":"","AREA_SQKM":1475,"SAMEASCITY":0,"LABELRANK":0,"NAME_LEN":8,"MAPCOLOR9":1,"MAPCOLOR13":1,"FIPS":"US55103","SOV_A3":"US1","ADM0_A3":"USA","ADM0_LABEL":2,"ADMIN":"United States of America","GEONUNIT":"United States of America","GU_A3":"USA","MIN_LABEL":8,"MAX_LABEL":10,"MIN_ZOOM":6.6,"WIKIDATAID":"Q501596","NE_ID":1730096133,"latitude":43.383681,"longitude":-90.426273,"NAME_AR":"ريشلاند","NAME_BN":"","NAME_DE":"Richland","NAME_EL":"","NAME_EN":"Richland","NAME_ES":"Richland","NAME_FA":"شهرستان ریچلند، ویسکانسین","NAME_FR":"Richland","NAME_HE":"","NAME_HI":"","NAME_HU":"Richland","NAME_ID":"","NAME_IT":"Richland","NAME_JA":"リッチランド郡","NAME_KO":"리칠랜드","NAME_NL":"Richland","NAME_PL":"Richland","NAME_PT":"Richland","NAME_RU":"Ричленд","NAME_SV":"Richland","NAME_TR":"Richland","NAME_UK":"Ричленд","NAME_UR":"رچلینڈ کاؤنٹی، وسکونسن","NAME_VI":"Richland","NAME_ZH":"里奇兰县","NAME_ZHT":"里奇蘭郡"}},{"arcs":[[-189,-187,194,-111,-108]],"type":"Polygon","properties":{"FEATURECLA":"Admin-2 scale rank","SCALERANK":0,"ADM2_CODE":"USA-55055","ISO_3166_2":"US-55","ISO_A2":"US","ADM0_SR":1,"NAME":"Jefferson","NAME_ALT":"Jefferson County","NAME_LOCAL":"","TYPE":"County","TYPE_EN":"County","CODE_LOCAL":"55055","REGION":"WI","REGION_COD":"55","ABBREV":"","AREA_SQKM":1509,"SAMEASCITY":0,"LABELRANK":0,"NAME_LEN":9,"MAPCOLOR9":1,"MAPCOLOR13":1,"FIPS":"US55055","SOV_A3":"US1","ADM0_A3":"USA","ADM0_LABEL":2,"ADMIN":"United States of America","GEONUNIT":"United States of America","GU_A3":"USA","MIN_LABEL":8,"MAX_LABEL":10,"MIN_ZOOM":6.6,"WIKIDATAID":"Q500958","NE_ID":1730096079,"latitude":43.020268,"longitude":-88.775722,"NAME_AR":"جيفرسون","NAME_BN":"জেফারসন কাউন্টি","NAME_DE":"Jefferson","NAME_EL":"","NAME_EN":"Jefferson","NAME_ES":"Jefferson","NAME_FA":"شهرستان جفرسون، ویسکانسین","NAME_FR":"Jefferson","NAME_HE":"","NAME_HI":"","NAME_HU":"Jefferson","NAME_ID":"","NAME_IT":"Jefferson","NAME_JA":"ジェファーソン郡","NAME_KO":"제퍼슨","NAME_NL":"Jefferson","NAME_PL":"Jefferson","NAME_PT":"Jefferson","NAME_RU":"Джефферсон","NAME_SV":"Jefferson","NAME_TR":"Jefferson","NAME_UK":"Джефферсон","NAME_UR":"جیفرسن کاؤنٹی، وسکونسن","NAME_VI":"Jefferson","NAME_ZH":"杰佛逊县","NAME_ZHT":"傑佛遜縣"}},{"arcs":[[-190,-103,-100,-64,-194,-192]],"type":"Polygon","properties":{"FEATURECLA":"Admin-2 scale rank","SCALERANK":0,"ADM2_CODE":"USA-55049","ISO_3166_2":"US-55","ISO_A2":"US","ADM0_SR":1,"NAME":"Iowa","NAME_ALT":"Iowa County","NAME_LOCAL":"","TYPE":"County","TYPE_EN":"County","CODE_LOCAL":"55049","REGION":"WI","REGION_COD":"55","ABBREV":"","AREA_SQKM":2051,"SAMEASCITY":0,"LABELRANK":0,"NAME_LEN":4,"MAPCOLOR9":1,"MAPCOLOR13":1,"FIPS":"US55049","SOV_A3":"US1","ADM0_A3":"USA","ADM0_LABEL":2,"ADMIN":"United States of America","GEONUNIT":"United States of America","GU_A3":"USA","MIN_LABEL":8,"MAX_LABEL":10,"MIN_ZOOM":6.6,"WIKIDATAID":"Q501582","NE_ID":1730096075,"latitude":42.993638,"longitude":-90.137588,"NAME_AR":"آيوا","NAME_BN":"","NAME_DE":"Iowa","NAME_EL":"","NAME_EN":"Iowa","NAME_ES":"Iowa","NAME_FA":"شهرستان آیووا، ویسکانسین","NAME_FR":"'Iowa","NAME_HE":"מחוז איווה","NAME_HI":"","NAME_HU":"Iowa","NAME_ID":"","NAME_IT":"Iowa","NAME_JA":"アイオワ郡","NAME_KO":"아이오와","NAME_NL":"Iowa","NAME_PL":"Iowa","NAME_PT":"Iowa","NAME_RU":"Айова","NAME_SV":"Iowa","NAME_TR":"Iowa","NAME_UK":"Айова","NAME_UR":"آئیووا کاؤنٹی، وسکونسن","NAME_VI":"Iowa","NAME_ZH":"爱阿华县","NAME_ZHT":"愛阿華縣"}},{"arcs":[[-185,-165,-14,-11,195]],"type":"Polygon","properties":{"FEATURECLA":"Admin-2 scale rank","SCALERANK":0,"ADM2_CODE":"USA-55131","ISO_3166_2":"US-55","ISO_A2":"US","ADM0_SR":1,"NAME":"Washington","NAME_ALT":"Washington County","NAME_LOCAL":"","TYPE":"County","TYPE_EN":"County","CODE_LOCAL":"55131","REGION":"WI","REGION_COD":"55","ABBREV":"","AREA_SQKM":1130,"SAMEASCITY":0,"LABELRANK":0,"NAME_LEN":10,"MAPCOLOR9":1,"MAPCOLOR13":1,"FIPS":"US55131","SOV_A3":"US1","ADM0_A3":"USA","ADM0_LABEL":2,"ADMIN":"United States of America","GEONUNIT":"United States of America","GU_A3":"USA","MIN_LABEL":8,"MAX_LABEL":10,"MIN_ZOOM":6.6,"WIKIDATAID":"Q501559","NE_ID":1730096165,"latitude":43.368127,"longitude":-88.230783,"NAME_AR":"واشنطن","NAME_BN":"ওয়াশিংটন কাউন্টি","NAME_DE":"Washington","NAME_EL":"","NAME_EN":"Washington","NAME_ES":"Washington","NAME_FA":"شهرستان واشینگتن، ویسکانسین","NAME_FR":"Washington","NAME_HE":"","NAME_HI":"","NAME_HU":"Washington","NAME_ID":"","NAME_IT":"Washington","NAME_JA":"ワシントン郡","NAME_KO":"워싱턴","NAME_NL":"Washington","NAME_PL":"Washington","NAME_PT":"Washington","NAME_RU":"Вашингтон","NAME_SV":"Washington","NAME_TR":"Washington","NAME_UK":"Вашингтон","NAME_UR":"واشنگٹن کاؤنٹی، وسکونسن","NAME_VI":"Washington","NAME_ZH":"华盛顿县","NAME_ZHT":"華盛頓縣"}},{"arcs":[[-186,-196,-8,-5,-112,-195]],"type":"Polygon","properties":{"FEATURECLA":"Admin-2 scale rank","SCALERANK":0,"ADM2_CODE":"USA-55133","ISO_3166_2":"US-55","ISO_A2":"US","ADM0_SR":1,"NAME":"Waukesha","NAME_ALT":"Waukesha County","NAME_LOCAL":"","TYPE":"County","TYPE_EN":"County","CODE_LOCAL":"55133","REGION":"WI","REGION_COD":"55","ABBREV":"","AREA_SQKM":1503,"SAMEASCITY":0,"LABELRANK":0,"NAME_LEN":8,"MAPCOLOR9":1,"MAPCOLOR13":1,"FIPS":"US55133","SOV_A3":"US1","ADM0_A3":"USA","ADM0_LABEL":2,"ADMIN":"United States of America","GEONUNIT":"United States of America","GU_A3":"USA","MIN_LABEL":8,"MAX_LABEL":10,"MIN_ZOOM":6.6,"WIKIDATAID":"Q370654","NE_ID":1730096167,"latitude":43.017577,"longitude":-88.304317,"NAME_AR":"واكيشا","NAME_BN":"","NAME_DE":"Waukesha","NAME_EL":"","NAME_EN":"Waukesha","NAME_ES":"Waukesha","NAME_FA":"شهرستان واکیشا، ویسکانسین","NAME_FR":"Waukesha","NAME_HE":"","NAME_HI":"","NAME_HU":"Waukesha","NAME_ID":"","NAME_IT":"Waukesha","NAME_JA":"ウォーキショー郡","NAME_KO":"워케샤","NAME_NL":"Waukesha","NAME_PL":"Waukesha","NAME_PT":"Waukesha","NAME_RU":"Уокешо","NAME_SV":"Waukesha","NAME_TR":"Waukesha","NAME_UK":"Вокеша","NAME_UR":"واوکیشا کاؤنٹی، وسکونسن","NAME_VI":"Waukesha","NAME_ZH":"沃基肖縣","NAME_ZHT":"沃基肖縣"}},{"arcs":[[-37,-30,196,-163,197,198,199]],"type":"Polygon","properties":{"FEATURECLA":"Admin-2 scale rank","SCALERANK":0,"ADM2_CODE":"USA-55083","ISO_3166_2":"US-55","ISO_A2":"US","ADM0_SR":1,"NAME":"Oconto","NAME_ALT":"Oconto County","NAME_LOCAL":"","TYPE":"County","TYPE_EN":"County","CODE_LOCAL":"55083","REGION":"WI","REGION_COD":"55","ABBREV":"","AREA_SQKM":2637,"SAMEASCITY":0,"LABELRANK":0,"NAME_LEN":6,"MAPCOLOR9":1,"MAPCOLOR13":1,"FIPS":"US55083","SOV_A3":"US1","ADM0_A3":"USA","ADM0_LABEL":2,"ADMIN":"United States of America","GEONUNIT":"United States of America","GU_A3":"USA","MIN_LABEL":8,"MAX_LABEL":10,"MIN_ZOOM":6.6,"WIKIDATAID":"Q490477","NE_ID":1730096111,"latitude":45.009479,"longitude":-88.314471,"NAME_AR":"أوكونتو","NAME_BN":"","NAME_DE":"Oconto","NAME_EL":"","NAME_EN":"Oconto","NAME_ES":"Oconto","NAME_FA":"شهرستان اوکونتو، ویسکانسین","NAME_FR":"'Oconto","NAME_HE":"","NAME_HI":"","NAME_HU":"Oconto","NAME_ID":"","NAME_IT":"Oconto","NAME_JA":"オコント郡","NAME_KO":"오콘토","NAME_NL":"Oconto","NAME_PL":"Oconto","NAME_PT":"Oconto","NAME_RU":"Оконто","NAME_SV":"Oconto","NAME_TR":"Oconto","NAME_UK":"Оконто","NAME_UR":"اوکانٹو کاؤنٹی، وسکونسن","NAME_VI":"Oconto","NAME_ZH":"奥康托县","NAME_ZHT":"奧康托郡"}},{"arcs":[[-38,-200,200,201,-182,202,203]],"type":"Polygon","properties":{"FEATURECLA":"Admin-2 scale rank","SCALERANK":0,"ADM2_CODE":"USA-55067","ISO_3166_2":"US-55","ISO_A2":"US","ADM0_SR":1,"NAME":"Langlade","NAME_ALT":"Langlade County","NAME_LOCAL":"","TYPE":"County","TYPE_EN":"County","CODE_LOCAL":"55067","REGION":"WI","REGION_COD":"55","ABBREV":"","AREA_SQKM":2298,"SAMEASCITY":0,"LABELRANK":0,"NAME_LEN":8,"MAPCOLOR9":1,"MAPCOLOR13":1,"FIPS":"US55067","SOV_A3":"US1","ADM0_A3":"USA","ADM0_LABEL":2,"ADMIN":"United States of America","GEONUNIT":"United States of America","GU_A3":"USA","MIN_LABEL":8,"MAX_LABEL":10,"MIN_ZOOM":6.6,"WIKIDATAID":"Q495326","NE_ID":1730096093,"latitude":45.27018,"longitude":-89.079363,"NAME_AR":"لانغلاد","NAME_BN":"","NAME_DE":"Langlade","NAME_EL":"","NAME_EN":"Langlade","NAME_ES":"Langlade","NAME_FA":"شهرستان لانگلاد، ویسکانسین","NAME_FR":"Langlade","NAME_HE":"","NAME_HI":"","NAME_HU":"Langlade","NAME_ID":"","NAME_IT":"Langlade","NAME_JA":"ラングレード郡","NAME_KO":"랭글레이드","NAME_NL":"Langlade","NAME_PL":"Langlade","NAME_PT":"Langlade","NAME_RU":"Лэнглэйд","NAME_SV":"Langlade","NAME_TR":"Langlade","NAME_UK":"Ланґлейд","NAME_UR":"لینگڈیل کاؤنٹی، وسکونسن","NAME_VI":"Langlade","NAME_ZH":"朗格拉德县","NAME_ZHT":"朗格拉德郡"}},{"arcs":[[-39,-204,204,205,-41]],"type":"Polygon","properties":{"FEATURECLA":"Admin-2 scale rank","SCALERANK":0,"ADM2_CODE":"USA-55085","ISO_3166_2":"US-55","ISO_A2":"US","ADM0_SR":1,"NAME":"Oneida","NAME_ALT":"Oneida County","NAME_LOCAL":"","TYPE":"County","TYPE_EN":"County","CODE_LOCAL":"55085","REGION":"WI","REGION_COD":"55","ABBREV":"","AREA_SQKM":3203,"SAMEASCITY":0,"LABELRANK":0,"NAME_LEN":6,"MAPCOLOR9":1,"MAPCOLOR13":1,"FIPS":"US55085","SOV_A3":"US1","ADM0_A3":"USA","ADM0_LABEL":2,"ADMIN":"United States of America","GEONUNIT":"United States of America","GU_A3":"USA","MIN_LABEL":8,"MAX_LABEL":10,"MIN_ZOOM":6.6,"WIKIDATAID":"Q497424","NE_ID":1730096113,"latitude":45.727424,"longitude":-89.52139,"NAME_AR":"أونيدا","NAME_BN":"","NAME_DE":"Oneida","NAME_EL":"","NAME_EN":"Oneida","NAME_ES":"Oneida","NAME_FA":"شهرستان اونیدا، ویسکانسین","NAME_FR":"'Oneida","NAME_HE":"","NAME_HI":"","NAME_HU":"Oneida","NAME_ID":"Kabupaten Oneida","NAME_IT":"Oneida","NAME_JA":"オナイダ郡","NAME_KO":"오나이다","NAME_NL":"Oneida","NAME_PL":"Oneida","NAME_PT":"Oneida","NAME_RU":"Онейда","NAME_SV":"Oneida","NAME_TR":"Oneida","NAME_UK":"Онейда","NAME_UR":"اونیڈا کاؤنٹی، وسکونسن","NAME_VI":"Oneida","NAME_ZH":"奥奈达县","NAME_ZHT":"奧奈達縣"}},{"arcs":[[-180,-135,-55,-83]],"type":"Polygon","properties":{"FEATURECLA":"Admin-2 scale rank","SCALERANK":0,"ADM2_CODE":"USA-55081","ISO_3166_2":"US-55","ISO_A2":"US","ADM0_SR":1,"NAME":"Monroe","NAME_ALT":"Monroe County","NAME_LOCAL":"","TYPE":"County","TYPE_EN":"County","CODE_LOCAL":"55081","REGION":"WI","REGION_COD":"55","ABBREV":"","AREA_SQKM":2362,"SAMEASCITY":0,"LABELRANK":0,"NAME_LEN":6,"MAPCOLOR9":1,"MAPCOLOR13":1,"FIPS":"US55081","SOV_A3":"US1","ADM0_A3":"USA","ADM0_LABEL":2,"ADMIN":"United States of America","GEONUNIT":"United States of America","GU_A3":"USA","MIN_LABEL":8,"MAX_LABEL":10,"MIN_ZOOM":6.6,"WIKIDATAID":"Q932966","NE_ID":1730096107,"latitude":43.943049,"longitude":-90.619042,"NAME_AR":"مونرو","NAME_BN":"","NAME_DE":"Monroe","NAME_EL":"","NAME_EN":"Monroe","NAME_ES":"Monroe","NAME_FA":"شهرستان مونروو، ویسکانسین","NAME_FR":"Monroe","NAME_HE":"","NAME_HI":"","NAME_HU":"Monroe","NAME_ID":"","NAME_IT":"Monroe","NAME_JA":"モンロー郡","NAME_KO":"먼로","NAME_NL":"Monroe","NAME_PL":"Monroe","NAME_PT":"Monroe","NAME_RU":"Монро","NAME_SV":"Monroe","NAME_TR":"Monroe","NAME_UK":"Монро","NAME_UR":"مونرو کاؤنٹی، وسکونسن","NAME_VI":"Monroe","NAME_ZH":"门罗县","NAME_ZHT":"門羅縣"}},{"arcs":[[-201,-199,206]],"type":"Polygon","properties":{"FEATURECLA":"Admin-2 scale rank","SCALERANK":0,"ADM2_CODE":"USA-55078","ISO_3166_2":"US-55","ISO_A2":"US","ADM0_SR":1,"NAME":"Menominee","NAME_ALT":"Menominee County","NAME_LOCAL":"","TYPE":"County","TYPE_EN":"County","CODE_LOCAL":"55078","REGION":"WI","REGION_COD":"55","ABBREV":"","AREA_SQKM":946,"SAMEASCITY":0,"LABELRANK":0,"NAME_LEN":9,"MAPCOLOR9":1,"MAPCOLOR13":1,"FIPS":"US55078","SOV_A3":"US1","ADM0_A3":"USA","ADM0_LABEL":2,"ADMIN":"United States of America","GEONUNIT":"United States of America","GU_A3":"USA","MIN_LABEL":8,"MAX_LABEL":10,"MIN_ZOOM":6.6,"WIKIDATAID":"Q500947","NE_ID":1730096103,"latitude":45.015212,"longitude":-88.664828,"NAME_AR":"مينوميني","NAME_BN":"","NAME_DE":"Menominee","NAME_EL":"","NAME_EN":"Menominee","NAME_ES":"Menominee","NAME_FA":"شهرستان منومینه، ویسکانسین","NAME_FR":"Menominee","NAME_HE":"","NAME_HI":"","NAME_HU":"Menominee","NAME_ID":"","NAME_IT":"Menominee","NAME_JA":"メノミニー郡","NAME_KO":"메노미니","NAME_NL":"Menominee","NAME_PL":"Menominee","NAME_PT":"Menominee","NAME_RU":"Меномини","NAME_SV":"Menominee","NAME_TR":"Menominee","NAME_UK":"Меноміні","NAME_UR":"مینومینی کاؤنٹی، وسکونسن","NAME_VI":"Menominee","NAME_ZH":"梅诺米尼县","NAME_ZHT":"梅諾米尼郡"}},{"arcs":[[-202,-207,-198,-162,-173,207,-183]],"type":"Polygon","properties":{"FEATURECLA":"Admin-2 scale rank","SCALERANK":0,"ADM2_CODE":"USA-55115","ISO_3166_2":"US-55","ISO_A2":"US","ADM0_SR":1,"NAME":"Shawano","NAME_ALT":"Shawano County","NAME_LOCAL":"","TYPE":"County","TYPE_EN":"County","CODE_LOCAL":"55115","REGION":"WI","REGION_COD":"55","ABBREV":"","AREA_SQKM":2356,"SAMEASCITY":0,"LABELRANK":0,"NAME_LEN":7,"MAPCOLOR9":1,"MAPCOLOR13":1,"FIPS":"US55115","SOV_A3":"US1","ADM0_A3":"USA","ADM0_LABEL":2,"ADMIN":"United States of America","GEONUNIT":"United States of America","GU_A3":"USA","MIN_LABEL":8,"MAX_LABEL":10,"MIN_ZOOM":6.6,"WIKIDATAID":"Q500838","NE_ID":1730096147,"latitude":44.811141,"longitude":-88.863782,"NAME_AR":"شاوانو","NAME_BN":"","NAME_DE":"Shawano","NAME_EL":"","NAME_EN":"Shawano","NAME_ES":"Shawano","NAME_FA":"شهرستان شاوانو، ویسکانسین","NAME_FR":"Shawano","NAME_HE":"","NAME_HI":"","NAME_HU":"Shawano","NAME_ID":"","NAME_IT":"Shawano","NAME_JA":"シャワノ郡","NAME_KO":"샤와노","NAME_NL":"Shawano","NAME_PL":"Shawano","NAME_PT":"Shawano","NAME_RU":"Шавано","NAME_SV":"Shawano","NAME_TR":"Shawano","NAME_UK":"Шавано","NAME_UR":"شاوانو کاؤنٹی، وسکونسن","NAME_VI":"Shawano","NAME_ZH":"肖诺县","NAME_ZHT":"沙瓦諾郡"}},{"arcs":[[-203,-181,-175,208,-205]],"type":"Polygon","properties":{"FEATURECLA":"Admin-2 scale rank","SCALERANK":0,"ADM2_CODE":"USA-55069","ISO_3166_2":"US-55","ISO_A2":"US","ADM0_SR":1,"NAME":"Lincoln","NAME_ALT":"Lincoln County","NAME_LOCAL":"","TYPE":"County","TYPE_EN":"County","CODE_LOCAL":"55069","REGION":"WI","REGION_COD":"55","ABBREV":"","AREA_SQKM":2349,"SAMEASCITY":0,"LABELRANK":0,"NAME_LEN":7,"MAPCOLOR9":1,"MAPCOLOR13":1,"FIPS":"US55069","SOV_A3":"US1","ADM0_A3":"USA","ADM0_LABEL":2,"ADMIN":"United States of America","GEONUNIT":"United States of America","GU_A3":"USA","MIN_LABEL":8,"MAX_LABEL":10,"MIN_ZOOM":6.6,"WIKIDATAID":"Q494947","NE_ID":1730096095,"latitude":45.337645,"longitude":-89.734528,"NAME_AR":"لنكولن","NAME_BN":"","NAME_DE":"Lincoln","NAME_EL":"","NAME_EN":"Lincoln","NAME_ES":"Lincoln","NAME_FA":"شهرستان لینکلن، ویسکانسین","NAME_FR":"Lincoln","NAME_HE":"","NAME_HI":"","NAME_HU":"Lincoln","NAME_ID":"","NAME_IT":"Lincoln","NAME_JA":"リンカーン郡","NAME_KO":"링컨","NAME_NL":"Lincoln","NAME_PL":"Lincoln","NAME_PT":"Lincoln","NAME_RU":"Линкольн","NAME_SV":"Lincoln","NAME_TR":"Lincoln","NAME_UK":"Лінкольн","NAME_UR":"لنکن کاؤنٹی، وسکونسن","NAME_VI":"Lincoln","NAME_ZH":"林肯县","NAME_ZHT":"林肯縣"}},{"arcs":[[-209,-174,-147,209,-48,-45,-42,-206]],"type":"Polygon","properties":{"FEATURECLA":"Admin-2 scale rank","SCALERANK":0,"ADM2_CODE":"USA-55099","ISO_3166_2":"US-55","ISO_A2":"US","ADM0_SR":1,"NAME":"Price","NAME_ALT":"Price County","NAME_LOCAL":"","TYPE":"County","TYPE_EN":"County","CODE_LOCAL":"55099","REGION":"WI","REGION_COD":"55","ABBREV":"","AREA_SQKM":3312,"SAMEASCITY":0,"LABELRANK":0,"NAME_LEN":5,"MAPCOLOR9":1,"MAPCOLOR13":1,"FIPS":"US55099","SOV_A3":"US1","ADM0_A3":"USA","ADM0_LABEL":2,"ADMIN":"United States of America","GEONUNIT":"United States of America","GU_A3":"USA","MIN_LABEL":8,"MAX_LABEL":10,"MIN_ZOOM":6.6,"WIKIDATAID":"Q505644","NE_ID":1730096129,"latitude":45.68041,"longitude":-90.36135,"NAME_AR":"برايس","NAME_BN":"","NAME_DE":"Price","NAME_EL":"","NAME_EN":"Price","NAME_ES":"Price","NAME_FA":"شهرستان پرایس، ویسکانسین","NAME_FR":"Price","NAME_HE":"","NAME_HI":"","NAME_HU":"Price","NAME_ID":"","NAME_IT":"Price","NAME_JA":"プライス郡","NAME_KO":"프라이스","NAME_NL":"Price","NAME_PL":"Price","NAME_PT":"Price","NAME_RU":"Прайс","NAME_SV":"Price","NAME_TR":"Price","NAME_UK":"Прайс","NAME_UR":"پرائس کاؤنٹی، وسکونسن","NAME_VI":"Price","NAME_ZH":"普赖斯县","NAME_ZHT":"普賴斯郡"}},{"arcs":[[-172,-170,-124,-122,-208]],"type":"Polygon","properties":{"FEATURECLA":"Admin-2 scale rank","SCALERANK":0,"ADM2_CODE":"USA-55135","ISO_3166_2":"US-55","ISO_A2":"US","ADM0_SR":1,"NAME":"Waupaca","NAME_ALT":"Waupaca County","NAME_LOCAL":"","TYPE":"County","TYPE_EN":"County","CODE_LOCAL":"55135","REGION":"WI","REGION_COD":"55","ABBREV":"","AREA_SQKM":1982,"SAMEASCITY":0,"LABELRANK":0,"NAME_LEN":7,"MAPCOLOR9":1,"MAPCOLOR13":1,"FIPS":"US55135","SOV_A3":"US1","ADM0_A3":"USA","ADM0_LABEL":2,"ADMIN":"United States of America","GEONUNIT":"United States of America","GU_A3":"USA","MIN_LABEL":8,"MAX_LABEL":10,"MIN_ZOOM":6.6,"WIKIDATAID":"Q500854","NE_ID":1730096169,"latitude":44.461183,"longitude":-88.964814,"NAME_AR":"واوباكا","NAME_BN":"","NAME_DE":"Waupaca","NAME_EL":"","NAME_EN":"Waupaca","NAME_ES":"Waupaca","NAME_FA":"شهرستان وپاکا، ویسکانسین","NAME_FR":"Waupaca","NAME_HE":"","NAME_HI":"","NAME_HU":"Waupaca","NAME_ID":"","NAME_IT":"Waupaca","NAME_JA":"ワウパカ郡","NAME_KO":"워파카","NAME_NL":"Waupaca","NAME_PL":"Waupaca","NAME_PT":"Waupaca","NAME_RU":"Вопака","NAME_SV":"Waupaca","NAME_TR":"Waupaca","NAME_UK":"Вопака","NAME_UR":"واوپیکا کاؤنٹی، وسکونسن","NAME_VI":"Waupaca","NAME_ZH":"沃帕卡县","NAME_ZHT":"沃帕卡郡"}},{"arcs":[[-210,-146,-145,-71,-49]],"type":"Polygon","properties":{"FEATURECLA":"Admin-2 scale rank","SCALERANK":0,"ADM2_CODE":"USA-55113","ISO_3166_2":"US-55","ISO_A2":"US","ADM0_SR":1,"NAME":"Sawyer","NAME_ALT":"Sawyer County","NAME_LOCAL":"","TYPE":"County","TYPE_EN":"County","CODE_LOCAL":"55113","REGION":"WI","REGION_COD":"55","ABBREV":"","AREA_SQKM":3495,"SAMEASCITY":0,"LABELRANK":0,"NAME_LEN":6,"MAPCOLOR9":1,"MAPCOLOR13":1,"FIPS":"US55113","SOV_A3":"US1","ADM0_A3":"USA","ADM0_LABEL":2,"ADMIN":"United States of America","GEONUNIT":"United States of America","GU_A3":"USA","MIN_LABEL":8,"MAX_LABEL":10,"MIN_ZOOM":6.6,"WIKIDATAID":"Q500784","NE_ID":1730096143,"latitude":45.897884,"longitude":-91.173759,"NAME_AR":"سوير","NAME_BN":"","NAME_DE":"Sawyer","NAME_EL":"","NAME_EN":"Sawyer","NAME_ES":"Sawyer","NAME_FA":"شهرستان سایر، ویسکانسین","NAME_FR":"Sawyer","NAME_HE":"","NAME_HI":"","NAME_HU":"Sawyer","NAME_ID":"","NAME_IT":"Sawyer","NAME_JA":"ソーヤー郡","NAME_KO":"소여","NAME_NL":"Sawyer","NAME_PL":"Sawyer","NAME_PT":"Sawyer","NAME_RU":"Сойер","NAME_SV":"Sawyer","NAME_TR":"Sawyer","NAME_UK":"Соєр","NAME_UR":"سایئر کاؤنٹی، وسکونسن","NAME_VI":"Sawyer","NAME_ZH":"索耶县","NAME_ZHT":"索耶郡"}}]}}}